name,cate_1,cate_2,cate_3,area,address,lon,lat,rank,distance
의정부부대찌개,한식,부대찌개/섞어찌개,한식 음식점업,대치동,서울특별시 강남구 역삼로83길 24,37.5050823626224,127.059382014164,3.0,319.0
바른치킨,닭/오리요리,후라이드/양념치킨,치킨 전문점,대치동,서울특별시 강남구 선릉로86길 17,37.5035560451156,127.051054283867,2.7,746.0
곰바위,한식,한식/백반/한정식,한식 음식점업,삼성동,서울특별시 강남구 봉은사로97길 16,37.5149248692146,127.058625030656,3.1,813.0
놀부보쌈삼성역점,한식,족발/보쌈전문,한식 음식점업,대치동,서울특별시 강남구 영동대로85길 7,37.50710315914289,127.063089181717,1.0,474.0
하루엔소쿠,일식/수산물,음식점-일식,일식 음식점업,대치동,서울특별시 강남구 테헤란로70길 16,37.5043938900755,127.053283110318,0.0,536.0
남원추어탕,한식,추어탕전문,한식 음식점업,대치동,서울특별시 강남구 영동대로86길 27,37.5084892314627,127.066306771778,0.0,760.0
사천옥,한식,한식/백반/한정식,한식 음식점업,대치동,서울특별시 강남구 선릉로86길 12,37.5030950087048,127.050867848067,4.0,791.0
JS테이블,양식,돈가스전문점,서양식 음식점업,대치동,서울특별시 강남구 선릉로82길 5,37.502605216093,127.050466888835,3.2,853.0
진가샤브샤브,별식/퓨전요리,샤브샤브전문,한식 음식점업,대치동,서울특별시 강남구 도곡로 426,37.4973872847024,127.05711491821,2.7,1142.0
가나안,분식,라면김밥분식,분식 및 김밥 전문점,대치동,서울특별시 강남구 역삼로 450,37.5022201469231,127.056386859801,0.0,615.0
종인이네만두,한식,한식/백반/한정식,한식 음식점업,삼성동,서울특별시 강남구 테헤란로81길 60-4,37.5104617201142,127.056000337255,4.0,349.0
조랭이부대찌개,한식,부대찌개/섞어찌개,한식 음식점업,대치동,서울특별시 강남구 테헤란로78길 16,37.5050499630967,127.05532200064,0.0,360.0
브래서리,양식,기타전문서양음식점,서양식 음식점업,삼성동,서울특별시 강남구 영동대로 513,37.5118203253706,127.059139102428,4.5,480.0
메밀향막국수,한식,한식/백반/한정식,한식 음식점업,대치동,서울특별시 강남구 삼성로 212,37.4996105819766,127.065897098053,0.0,1146.0
도가촌제주생오겹살,한식,갈비/삼겹살,한식 음식점업,대치동,서울특별시 강남구 역삼로 433,37.5018433922011,127.054344513616,0.0,712.0
황소곱창,한식,기타고기요리,한식 음식점업,삼성동,서울특별시 강남구 봉은사로82길 16,37.5121204549056,127.054972729014,3.7,555.0
이조복집,일식/수산물,복전문,한식 음식점업,삼성동,서울특별시 강남구 봉은사로112길 28,37.5130901923285,127.064733704943,3.0,863.0
정통원조한방삼계탕,닭/오리요리,삼계탕전문,한식 음식점업,대치동,서울특별시 강남구 테헤란로68길 25,37.5036333626325,127.052828997841,2.6,623.0
멘뮤샤,일식/수산물,음식점-일식,일식 음식점업,삼성동,서울특별시 강남구 영동대로 513,37.5118203253706,127.059139102428,2.1,480.0
BHC치킨,닭/오리요리,후라이드/양념치킨,치킨 전문점,삼성동,서울특별시 강남구 영동대로 611,37.51471467511929,127.059385563017,1.2,799.0
새벽바다,일식/수산물,횟집,한식 음식점업,대치동,서울특별시 강남구 역삼로 449,37.5025150261899,127.056077779232,0.0,590.0
코우,일식/수산물,음식점-초밥전문,일식 음식점업,대치동,서울특별시 강남구 삼성로85길 11,37.5045881509052,127.056164781276,4.3,368.0
신의주부대찌개,한식,부대찌개/섞어찌개,한식 음식점업,삼성동,서울특별시 강남구 봉은사로108길 3-10,37.5144026470147,127.064344037841,3.0,949.0
홍춘천치즈닭갈비,닭/오리요리,닭갈비전문,한식 음식점업,대치동,서울특별시 강남구 선릉로 424,37.502899170118496,127.050044694901,3.0,861.0
한솥도시락 대치동삼성아파트입구점,패스트푸드,도시락전문점,한식 음식점업,대치동,서울특별시 강남구 삼성로57길 22,37.4977915597162,127.059224668164,4.0,1103.0
대치정육식당,한식,한식/백반/한정식,한식 음식점업,대치동,서울특별시 강남구 역삼로 450,37.5022201469231,127.056386859801,3.8,615.0
푸세울닭,닭/오리요리,후라이드/양념치킨,치킨 전문점,삼성동,서울특별시 강남구 영동대로 510,37.5105341373798,127.062831384964,3.4,550.0
부대찌개연,한식,한식/백반/한정식,한식 음식점업,대치동,서울특별시 강남구 테헤란로70길 28,37.50382098771549,127.053754061713,5.0,553.0
사보텐코엑스점,양식,돈가스전문점,서양식 음식점업,삼성동,서울특별시 강남구 영동대로 513,37.5118203253706,127.059139102428,2.9,480.0
싸움의고수,한식,한식/백반/한정식,한식 음식점업,대치동,서울특별시 강남구 도곡로 510,37.4990133147849,127.06216110792,3.0,1035.0
제주몬트락 한티점,한식,기타고기요리,한식 음식점업,대치동,서울특별시 강남구 선릉로64길 11-4,37.4982209183807,127.053191408305,3.1,1123.0
만나분식,분식,라면김밥분식,분식 및 김밥 전문점,대치동,서울특별시 강남구 삼성로 212,37.4996105819766,127.065897098053,2.6,1146.0
광수사,일식/수산물,음식점-일식,일식 음식점업,삼성동,서울특별시 강남구 테헤란로77길 22,37.5080058117068,127.054244157979,3.8,313.0
둘둘치킨삼성역점,닭/오리요리,후라이드/양념치킨,치킨 전문점,대치동,서울특별시 강남구 영동대로85길 6,37.5074172415839,127.062926906141,1.0,456.0
국대떡볶기,분식,떡볶이전문,분식 및 김밥 전문점,대치동,서울특별시 강남구 선릉로 424,37.502899170118496,127.050044694901,2.7,861.0
맥도날드,패스트푸드,패스트푸드,그외 기타 음식점업,대치동,서울특별시 강남구 도곡로 409,37.4973625540392,127.055147428125,1.8,1167.0
하남돼지집,한식,갈비/삼겹살,한식 음식점업,대치동,서울특별시 강남구 선릉로86길 10,37.50303039632129,127.050676395127,2.2,809.0
명인등심,한식,기타고기요리,한식 음식점업,삼성동,서울특별시 강남구 봉은사로86길 30,37.5114416285268,127.056847656648,3.6,430.0
삼성한방삼계탕,닭/오리요리,삼계탕전문,한식 음식점업,삼성동,서울특별시 강남구 영동대로 602,37.5145808720792,127.060688099709,0.0,813.0
고래즉석떡볶이,분식,떡볶이전문,분식 및 김밥 전문점,대치동,서울특별시 강남구 선릉로90길 56,37.5050715168437,127.053512070975,0.0,472.0
맛닭꼬대치점,닭/오리요리,후라이드/양념치킨,치킨 전문점,대치동,서울특별시 강남구 삼성로 227,37.4974296151836,127.061298795175,4.2,1178.0
이삭김밥,분식,라면김밥분식,분식 및 김밥 전문점,삼성동,서울특별시 강남구 봉은사로74길 10,37.5117321468724,127.051493723883,3.9,716.0
놀란치킨,닭/오리요리,후라이드/양념치킨,치킨 전문점,대치동,서울특별시 강남구 테헤란로64길 9,37.5044880347843,127.051540139422,4.0,652.0
길농원,닭/오리요리,오리고기전문,한식 음식점업,대치동,서울특별시 강남구 테헤란로108길 28,37.5075691716498,127.066182502515,2.5,743.0
더케이,한식,한식/백반/한정식,한식 음식점업,삼성동,서울특별시 강남구 봉은사로63길 19,37.512620526777,127.046561979816,0.0,1132.0
홍영재장수청국장,한식,한식/백반/한정식,한식 음식점업,대치동,서울특별시 강남구 영동대로 424,37.5074924116854,127.064452915868,3.5,590.0
24시와구아구,일식/수산물,아구전문,한식 음식점업,대치동,서울특별시 강남구 삼성로85길 42,37.5046227559395,127.053732632053,3.3,489.0
김가네 한티점,분식,라면김밥분식,분식 및 김밥 전문점,대치동,서울특별시 강남구 역삼로64길 26,37.4994202902644,127.053311978695,3.0,995.0
역전우동0410,분식,우동전문점,분식 및 김밥 전문점,대치동,서울특별시 강남구 선릉로64길 17,37.498215623792895,127.05365515759,4.8,1110.0
삼군김치찌개,한식,한식/백반/한정식,한식 음식점업,대치동,서울특별시 강남구 영동대로86길 28,37.50824704291809,127.066445518618,2.3,769.0
우노한우,한식,갈비/삼겹살,한식 음식점업,대치동,서울특별시 강남구 테헤란로70길 10,37.504978610728,127.053162623111,4.7,503.0
용호낙지,한식,곱창/양구이전문,한식 음식점업,삼성동,서울특별시 강남구 테헤란로 419,37.5058626747859,127.052167445764,1.5,532.0
목포낙지횟집,일식/수산물,횟집,한식 음식점업,삼성동,서울특별시 강남구 테헤란로107길 12,37.510653764882896,127.065420157185,5.0,754.0
라무진,한식,기타고기요리,한식 음식점업,대치동,서울특별시 강남구 역삼로63길 6,37.501577076726896,127.052594848035,4.0,814.0
남도밥상,한식,한식/백반/한정식,한식 음식점업,대치동,서울특별시 강남구 테헤란로 504,37.5066157960883,127.057326866248,4.4,121.0
소공동뚝배기집삼성본점,한식,한식/백반/한정식,한식 음식점업,삼성동,서울특별시 강남구 봉은사로114길 38,37.512653463780495,127.065338665087,2.3,870.0
바토스파르나스몰,양식,정통양식/경양식,서양식 음식점업,삼성동,서울특별시 강남구 테헤란로 521,37.50918435794689,127.060789660534,4.2,317.0
육시리,한식,기타고기요리,한식 음식점업,대치동,서울특별시 강남구 선릉로90길 56,37.5050715168437,127.053512070975,3.3,472.0
도마수산,일식/수산물,횟집,한식 음식점업,대치동,서울특별시 강남구 삼성로85길 33,37.5042799811461,127.054811431542,2.0,456.0
한빛살한우,한식,기타고기요리,한식 음식점업,삼성동,서울특별시 강남구 삼성로100길 23-11,37.510784104901695,127.056878552762,5.0,357.0
KFC대치동점,닭/오리요리,후라이드/양념치킨,치킨 전문점,대치동,서울특별시 강남구 도곡로 517,37.4998932664258,127.062907844797,2.3,974.0
가득드림,한식,한식/백반/한정식,한식 음식업점,삼성동,서울특별시 강남구 영동대로 513,37.51293939692889,127.057100286394,4.7,591.0
딤딤섬 파르나스몰점,중식,중국음식/중국집,중식 음식점업,삼성동,서울특별시 강남구 테헤란로 521,37.50918435794689,127.060789660534,3.4,317.0
물조은선주집,일식/수산물,횟집,한식 음식점업,삼성동,서울특별시 강남구 봉은사로84길 29,37.511419724876895,127.056361545382,3.6,437.0
부산아지매국밥,한식,한식/백반/한정식,한식 음식점업,삼성동,서울특별시 강남구 삼성로 517,37.5080786526444,127.055464807235,1.0,208.0
진양재순대,별식/퓨전요리,순대전문점,한식 음식점업,삼성동,서울특별시 강남구 봉은사로114길 38,37.512653463780495,127.065338665087,5.0,870.0
신마포갈매기삼성역점,한식,갈비/삼겹살,한식 음식점업,삼성동,서울특별시 강남구 삼성로104길 28,37.511244680532,127.05700849304,2.3,406.0
여수동촌,일식/수산물,횟집,한식 음식점업,대치동,서울특별시 강남구 삼성로75길 9,37.5033640315366,127.057458233681,4.0,477.0
김동진장호왕곱창,한식,곱창/양구이전문,한식 음식점업,대치동,서울특별시 강남구 삼성로84길 15,37.5056454671616,127.058809426368,3.3,241.0
레아레스토랑,일식/수산물,음식점-일식,일식 음식점업,대치동,서울특별시 강남구 테헤란로 432,37.5057662115946,127.054747451829,0.0,338.0
속이꽉찬만두99.9,분식,국수/만두/칼국수,분식 및 김밥 전문점,대치동,서울특별시 강남구 삼성로75길 26,37.5031368733148,127.056092570534,4.6,523.0
삼백플러스,한식,한식/백반/한정식,한식 음식점업,삼성동,서울특별시 강남구 테헤란로 447,37.5071191405077,127.05604243063,4.2,163.0
메콩타이,별식/퓨전요리,동남아음식전문점,기타 외국식 음식점업,대치동,서울특별시 강남구 테헤란로104길 9,37.5085888497427,127.065230995138,4.4,667.0
노브랜드버거,패스트푸드,패스트푸드,"피자, 햄버거, 샌드위치 및 유사 음식점업",삼성동,서울특별시 강남구 영동대로 513,37.5118203253706,127.059139102428,3.0,480.0
글로브비스트로,양식,기타전문서양음식점,서양식 음식점업,삼성동,서울특별시 강남구 테헤란로 521,37.50918435794689,127.060789660534,2.9,317.0
스시산원,일식/수산물,음식점-초밥전문,일식 음식점업,삼성동,서울특별시 강남구 선릉로100길 42,37.506563357025,127.050778695333,3.2,628.0
김태주선산곱창,한식,곱창/양구이전문,한식 음식점업,대치동,서울특별시 강남구 선릉로82길 8,37.5023999030067,127.050706998067,4.3,853.0
대치상회,한식,기타고기요리,한식 음식점업,대치동,서울특별시 강남구 삼성로58길 33,37.499270030575694,127.06385432146,3.7,1075.0
두꺼비정육식당,한식,갈비/삼겹살,한식 음식점업,대치동,서울특별시 강남구 역삼로 421,37.5014547499448,127.053071405956,3.4,803.0
서갈비,한식,갈비/삼겹살,한식 음식점업,대치동,서울특별시 강남구 선릉로 420,37.5024863633718,127.050253504605,3.3,876.0
곱창도둑,한식,곱창/양구이전문,한식 음식점업,대치동,서울특별시 강남구 선릉로86길 5-4,37.5034502132565,127.050218674857,0.0,813.0
일공,중식,중국음식/중국집,중식 음식점업,삼성동,서울특별시 강남구 영동대로112길 61,37.5159682145228,127.06519551691,4.2,1134.0
노브랜드버거,패스트푸드,패스트푸드,"피자, 햄버거, 샌드위치 및 유사 음식점업",대치동,서울특별시 강남구 도곡로 501,37.4993112898711,127.061105597704,2.8,973.0
델리커리,별식/퓨전요리,동남아음식전문점,기타 외국식 음식점업,대치동,서울특별시 강남구 테헤란로 440,37.505804183147696,127.056115540456,2.3,251.0
피자헛,패스트푸드,피자전문,"피자, 햄버거, 샌드위치 및 유사 음식점업",삼성동,서울특별시 강남구 봉은사로73길 19,37.5136239995974,127.050327304929,5.0,934.0
유촌참치마을,일식/수산물,참치전문점,일식 음식점업,삼성동,서울특별시 강남구 삼성로104길 8,37.5106814454219,127.055307586141,4.5,401.0
이삭토스트,패스트푸드,토스트전문,"피자, 햄버거, 샌드위치 및 유사 음식점업",대치동,서울특별시 강남구 삼성로 212,37.4996105819766,127.065897098053,2.0,1146.0
비첸향,중식,중국음식/중국집,중식 음식점업,삼성동,서울특별시 강남구 테헤란로 517,37.5086083814458,127.05974496335,3.0,205.0
7번가피자,패스트푸드,패스트푸드,그외 기타 음식점업,대치동,서울특별시 강남구 역삼로 454,37.5023955750736,127.056916220162,0.0,589.0
날으는오징어,일식/수산물,낙지/오징어,한식 음식점업,삼성동,서울특별시 강남구 테헤란로83길 12,37.5081884385543,127.057929185999,0.0,62.0
핫스토리부대찌개,한식,부대찌개/섞어찌개,한식 음식점업,삼성동,서울특별시 강남구 영동대로 513,37.5118203253706,127.059139102428,3.7,480.0
초원족발,한식,족발/보쌈전문,한식 음식점업,삼성동,서울특별시 강남구 테헤란로81길 42,37.5095901340888,127.056305401087,2.0,251.0
전주행복밥상,한식,한식/백반/한정식,한식 음식점업,삼성동,서울특별시 강남구 선릉로 514,37.5055951465088,127.049150940996,3.0,793.0
도마다리,한식,해장국/감자탕,한식 음식점업,삼성동,서울특별시 강남구 봉은사로72길 7,37.5117093124256,127.050894510661,5.0,756.0
로얄수제돈까스,양식,돈가스전문점,서양식 음식점업,대치동,서울특별시 강남구 영동대로85길 20-7,37.5073706982219,127.061604134108,5.0,340.0
기꾸스시,일식/수산물,음식점-초밥전문,일식 음식점업,대치동,서울특별시 강남구 테헤란로 614,37.5090190760852,127.064942855919,4.0,652.0
피자이탈리,한식,한식/백반/한정식,한식 음식점업,대치동,서울특별시 강남구 삼성로61길 41,37.498441596384,127.057124280426,5.0,1025.0
생각나는김밥,분식,라면김밥분식,분식 및 김밥 전문점,대치동,서울특별시 강남구 삼성로67길 25,37.500570945842895,127.05748203466,0.0,787.0
고기고샵,한식,한식/백반/한정식,한식 음식점업,대치동,서울특별시 강남구 테헤란로84길 16,37.506138745319,127.058520470266,3.0,181.0
60년전통 신촌황소곱창,한식,곱창/양구이전문,한식 음식점업,대치동,서울특별시 강남구 선릉로86길 32,37.5037109121337,127.052386922044,2.9,645.0
뮤직아날로그,양식,정통양식/경양식,서양식 음식점업,삼성동,서울특별시 강남구 테헤란로83길 40,37.51000062670511,127.056933655162,2.0,272.0
선릉김밥,분식,라면김밥분식,분식 및 김밥 전문점,삼성동,서울특별시 강남구 선릉로94길 3,37.5058713493375,127.048762881527,2.8,818.0
웰컴투조개골,일식/수산물,조개구이전문,한식 음식점업,대치동,서울특별시 강남구 선릉로64길 15-5,37.4984287749113,127.053267949413,3.0,1099.0
어사출또,일식/수산물,횟집,한식 음식점업,대치동,서울특별시 강남구 삼성로85길 39,37.5042305880772,127.054269162912,1.5,489.0
봉구스밥버거,분식,스낵,분식 및 김밥 전문점,대치동,서울특별시 강남구 선릉로 420,37.5024863633718,127.050253504605,2.3,876.0
찐정해물아귀찜,일식/수산물,아구전문,한식 음식점업,대치동,서울특별시 강남구 선릉로72길 20,37.5003354677784,127.052825419187,0.0,922.0
홍미닭발,닭/오리요리,닭내장/닭발요리,한식 음식점업,대치동,서울특별시 강남구 선릉로72길 12,37.5001507397365,127.05226227169,3.3,964.0
428레스토랑,양식,정통양식/경양식,서양식 음식점업,삼성동,서울특별시 강남구 봉은사로 428,37.5108299857511,127.046878848252,5.0,1023.0
한성양갈비구이,한식,갈비/삼겹살,한식 음식점업,대치동,서울특별시 강남구 테헤란로70길 26,37.5039286505462,127.053696151941,4.6,547.0
돈천동식당,양식,돈가스전문점,서양식 음식점업,대치동,서울특별시 강남구 도곡로63길 36,37.49928795425289,127.053664243599,4.9,997.0
양가식당,한식,기타고기요리,한식 음식점업,대치동,서울특별시 강남구 테헤란로64길 17,37.503939082098896,127.051626255401,4.8,680.0
거제지심도,일식/수산물,수산물전문음식점-종합,한식 음식점업,대치동,서울특별시 강남구 테헤란로108길 11,37.5086862820348,127.066157275422,4.3,750.0
롤링파스타,양식,스파게티전문점,서양식 음식점업,대치동,서울특별시 강남구 도곡로 442,37.4979595008024,127.0588154267,2.8,1081.0
사보텐,일식/수산물,음식점-일식,일식 음식점업,대치동,서울특별시 강남구 도곡로 504,37.4988016019982,127.061598284576,2.3,1040.0
해봉,한식,기타고기요리,한식 음식점업,대치동,서울특별시 강남구 테헤란로108길 25,37.507734295754496,127.066553701136,3.2,776.0
진대감,한식,기타고기요리,한식 음식점업,대치동,서울특별시 강남구 테헤란로70길 25,37.5040209210691,127.053966432204,4.6,524.0
KFC코엑스몰,패스트푸드,패스트푸드,그외 기타 음식점업,삼성동,서울특별시 강남구 영동대로 513,37.5118203253706,127.059139102428,1.9,480.0
수담한정식,한식,한식/백반/한정식,한식 음식점업,삼성동,서울특별시 강남구 봉은사로 418,37.510498243528495,127.045966861468,3.4,1088.0
몽중헌,중식,중국음식/중국집,중식 음식점업,대치동,서울특별시 강남구 영동대로 325,37.503355569704,127.065465897933,3.7,830.0
산,일식/수산물,음식점-일식,일식 음식점업,삼성동,서울특별시 강남구 봉은사로 445,37.5118514655959,127.048404206517,0.0,949.0
청담동장독대김치찌개,한식,부대찌개/섞어찌개,한식 음식점업,대치동,서울특별시 강남구 테헤란로64길 24,37.5033247917842,127.051430444003,3.8,737.0
얼린돌접시,일식/수산물,횟집,한식 음식점업,대치동,서울특별시 강남구 삼성로58길 7,37.4986678041458,127.061769599979,0.0,1059.0
디퀸즈,양식,기타전문서양음식점,서양식 음식점업,삼성동,서울특별시 강남구 영동대로 513,37.5118203253706,127.059139102428,2.4,480.0
동호숯불바베큐,닭/오리요리,후라이드/양념치킨,치킨 전문점,대치동,서울특별시 강남구 역삼로 468,37.5027857991034,127.058392924513,0.0,543.0
브라운돈까스,양식,돈가스전문점,서양식 음식점업,삼성동,서울특별시 강남구 봉은사로 474,37.5123579883076,127.052006131015,3.0,729.0
초량돼지,한식,갈비/삼겹살,한식 음식점업,대치동,서울특별시 강남구 테헤란로108길 12,37.5086018859206,127.065739823306,2.9,712.0
더참치,일식/수산물,참치전문점,일식 음식점업,대치동,서울특별시 강남구 삼성로86길 26,37.5060669370064,127.059686355337,4.7,244.0
천매도,일식/수산물,음식점-일식,일식 음식점업,대치동,서울특별시 강남구 삼성로 212,37.4996105819766,127.065897098053,1.0,1146.0
맥도날드,패스트푸드,패스트푸드,그외 기타 음식점업,삼성동,서울특별시 강남구 영동대로 513,37.5118203253706,127.059139102428,2.3,480.0
삼정복집,일식/수산물,복전문,한식 음식점업,삼성동,서울특별시 강남구 봉은사로 626,37.5146153836776,127.063900221245,1.0,945.0
철그릴,별식/퓨전요리,철판구이요리전문,그외 기타 음식점업,삼성동,서울특별시 강남구 테헤란로 517,37.5086083814458,127.05974496335,1.5,205.0
나의가야,한식,한식/백반/한정식,한식 음식점업,삼성동,서울특별시 강남구 테헤란로 517,37.5086083814458,127.05974496335,5.0,205.0
홍대개미,양식,스테이크전문점,서양식 음식점업,삼성동,서울특별시 강남구 테헤란로 521,37.50918435794689,127.060789660534,1.8,317.0
유정삼겹,한식,갈비/삼겹살,한식 음식점업,대치동,서울특별시 강남구 테헤란로 418,37.505088117665,127.052211169518,4.0,566.0
최가네버섯샤브매운탕칼국수,일식/수산물,매운탕전문,한식 음식점업,대치동,서울특별시 강남구 선릉로64길 20,37.4979384981775,127.053930077709,4.2,1131.0
광화문미진,한식,한식/백반/한정식,한식 음식점업,삼성동,서울특별시 강남구 영동대로 513,37.5118203253706,127.059139102428,2.1,480.0
카츠젠,양식,돈가스전문점,서양식 음식점업,대치동,서울특별시 강남구 선릉로86길 6,37.5030090135779,127.050258194081,4.0,839.0
3일소고기국밥,한식,해장국/감자탕,한식 음식점업,삼성동,서울특별시 강남구 봉은사로63길 3,37.5116784414891,127.047060352068,3.0,1045.0
춘천닭갈비,닭/오리요리,닭갈비전문,한식 음식점업,삼성동,서울특별시 강남구 영동대로 513,37.5118203253706,127.059139102428,4.5,480.0
이두부야순두부찌개,한식,두부요리전문,한식 음식점업,대치동,서울특별시 강남구 선릉로 420,37.5024863633718,127.050253504605,0.0,876.0
돈까스짱,양식,돈가스전문점,서양식 음식점업,대치동,서울특별시 강남구 삼성로 212,37.4996105819766,127.065897098053,0.0,1146.0
리김밥,분식,라면김밥분식,분식 및 김밥 전문점,삼성동,서울특별시 강남구 영동대로 513,37.5118203253706,127.059139102428,5.0,480.0
황태마을,한식,황태전문,한식 음식점업,대치동,서울특별시 강남구 테헤란로78길 14-6,37.50531726740449,127.054945389174,5.0,359.0
브라운치킨삼성점,닭/오리요리,후라이드/양념치킨,치킨 전문점,대치동,서울특별시 강남구 삼성로86길 28,37.5061043259542,127.05985554422,3.0,252.0
삼군김치찌개,한식,부대찌개/섞어찌개,한식 음식점업,대치동,서울특별시 강남구 선릉로86길 40-3,37.50378924656,127.05316633355,2.3,590.0
라이프,한식,기타고기요리,한식 음식점업,삼성동,서울특별시 강남구 영동대로96길 26,37.5109373298659,127.064817124889,3.3,722.0
중독,분식,떡볶이전문,분식 및 김밥 전문점,삼성동,서울특별시 강남구 테헤란로 423,37.5061664333982,127.052966652655,3.8,454.0
가츠몽,양식,돈가스전문점,양식 음식점업,삼성동,서울특별시 강남구 봉은사로103길 6,37.5150038564702,127.061757425653,2.3,891.0
본가스시,일식/수산물,음식점-초밥전문,일식 음식점업,삼성동,서울특별시 강남구 테헤란로 517,37.5086083814458,127.05974496335,2.0,205.0
숯칼,닭/오리요리,닭갈비전문,한식 전문점업,삼성동,서울특별시 강남구 삼성로91길 38,37.5065369168095,127.053097699424,4.7,430.0
남로명가,한식,갈비/삼겹살,한식 음식점업,삼성동,서울특별시 강남구 영동대로106길 33,37.514155353139294,127.063838096781,5.0,901.0
뽕사부,중식,중국음식/중국집,중식 음식점업,삼성동,서울특별시 강남구 삼성로104길 16,37.51098500265049,127.056084236939,3.0,400.0
909버거앤파스타,양식,스파게티전문점,서양식 음식점업,대치동,서울특별시 강남구 역삼로 420,37.5009665968304,127.052873995445,4.6,859.0
다정한떡볶이,분식,떡볶이전문,분식 및 김밥 전문점,삼성동,서울특별시 강남구 테헤란로 517,37.5086083814458,127.05974496335,0.0,205.0
까,한식,한식/백반/한정식,한식 음식점업,대치동,서울특별시 강남구 역삼로 560,37.504798429458496,127.064475224171,0.0,672.0
운좋은횟집,일식/수산물,횟집,한식 음식점업,삼성동,서울특별시 강남구 삼성로91길 28,37.506768682657,127.053909136476,0.0,354.0
이태리부대찌개삼성점,한식,부대찌개/섞어찌개,한식 음식점업,삼성동,서울특별시 강남구 삼성로104길 16,37.51098500265049,127.056084236939,3.6,400.0
시골집,한식,한식/백반/한정식,한식 음식점업,대치동,서울특별시 강남구 삼성로64길 41,37.5009985451009,127.063663094971,5.0,904.0
쭝일아찌5단계빨강떡볶이,분식,떡볶이전문,분식 및 김밥 전문점,삼성동,서울특별시 강남구 봉은사로67길 30,37.5136957039447,127.048041440985,2.7,1090.0
대치정육식당,한식,갈비/삼겹살,한식 음식점업,대치동,서울특별시 강남구 역삼로 450,37.5022201469231,127.056386859801,3.8,615.0
홍대개미파르나스몰점,한식,한식/백반/한정식,한식 음식점업,삼성동,서울특별시 강남구 테헤란로 521,37.50918435794689,127.060789660534,1.8,317.0
하드워커,한식,한식/백반/한정식,한식 음식점업,삼성동,서울특별시 강남구 삼성로100길 23-30,37.5110909747398,127.056942559168,4.0,390.0
히라메키,일식/수산물,음식점-일식,일식 음식점업,삼성동,서울특별시 강남구 테헤란로81길 32,37.5090338847985,127.056606489007,4.2,185.0
엄마손,한식,한식/백반/한정식,한식 음식점업,삼성동,서울특별시 강남구 테헤란로107길 11,37.5104254799265,127.065038423419,0.0,712.0
호봉토스트,패스트푸드,토스트전문,"피자, 햄버거, 샌드위치 및 유사 음식점업",삼성동,서울특별시 강남구 영동대로 513,37.5118203253706,127.059139102428,4.0,480.0
아부리,한식,한식/백반/한정식,한식 음식점업,대치동,서울특별시 강남구 선릉로86길 31,37.5042034482249,127.052007459091,5.0,636.0
오목집,한식,한식/백반/한정식,한식 음식점업,대치동,서울특별시 강남구 선릉로62길 19,37.4976514568119,127.054092028406,4.5,1158.0
바오미엔,중식,중국음식/중국집,중식 음식점업,대치동,서울특별시 강남구 선릉로72길 26,37.5005012676103,127.053275711708,1.0,888.0
허머스키친,양식,정통양식/경양식,서양식 음식점업,삼성동,서울특별시 강남구 테헤란로 521,37.5091935474624,127.060812167373,3.7,319.0
얌샘김밥,분식,라면김밥분식,분식 및 김밥 전문점,삼성동,서울특별시 강남구 봉은사로 629,37.5151671240436,127.064164815065,3.1,1009.0
135튀김집,분식,라면김밥분식,분식 및 김밥 전문점,대치동,서울특별시 강남구 도곡로 510,37.4990133147849,127.06216110792,3.3,1035.0
키와미,일식/수산물,음식점-일식,일식 음식점업,대치동,서울특별시 강남구 삼성로 238,37.4986287111494,127.061385569605,4.5,1053.0
바비분식,분식,라면김밥분식,분식 및 김밥 전문점,삼성동,서울특별시 강남구 영동대로 513,37.5118203253706,127.059139102428,5.0,480.0
흑산도홍어,패스트푸드,패스트푸드,그외 기타 음식점업,삼성동,서울특별시 강남구 영동대로 513,37.5118203253706,127.059139102428,0.0,480.0
삼다족발,한식,족발/보쌈전문,한식 음식점업,삼성동,서울특별시 강남구 봉은사로 616,37.5143248706367,127.062489879016,3.7,852.0
미드나잇인서울,패스트푸드,패스트푸드,그외 기타 음식점업,삼성동,서울특별시 강남구 영동대로 513,37.5118203253706,127.059139102428,0.0,480.0
일미식당,한식,한식/백반/한정식,한식 음식점업,대치동,서울특별시 강남구 삼성로72길 64,37.50078881221,127.063349041731,0.0,908.0
한우사랑,한식,한식/백반/한정식,한식 음식점업,삼성동,서울특별시 강남구 테헤란로83길 44,37.5102876711553,127.056771687567,3.0,306.0
복라이,중식,중국음식/중국집,중식 음식점업,삼성동,서울특별시 강남구 테헤란로63길 8,37.5058495050428,127.050527593,3.3,669.0
풍년참숯불갈비,한식,갈비/삼겹살,한식 음식점업,삼성동,서울특별시 강남구 봉은사로 616,37.5143248706367,127.062489879016,4.3,852.0
부부식당,한식,한식/백반/한정식,한식 음식점업,대치동,서울특별시 강남구 삼성로 343,37.502104309047,127.058808640076,0.0,623.0
까,한식,한식/백반/한정식,한식 음식점업,대치동,서울특별시 강남구 선릉로72길 10-16,37.4992597820114,127.052397936831,0.0,1046.0
차호랑,한식,한식/백반/한정식,한식 음식점업,대치동,서울특별시 강남구 테헤란로78길 26,37.5045040814778,127.055792600449,3.2,390.0
어가횟집,일식/수산물,횟집,한식 음식점업,삼성동,서울특별시 강남구 선릉로 570,37.5094135739944,127.044431058377,5.0,1192.0
1.2.3최유강중국집,중식,중국음식/중국집,중식 음식점업,대치동,서울특별시 강남구 삼성로85길 32,37.5047020772824,127.054636455439,2.2,428.0
파파밸리피자,한식,한식/백반/한정식,한식 음식점업,삼성동,서울특별시 강남구 영동대로112길 9,37.5151864973794,127.060929370717,2.3,884.0
동의명가칼국수,분식,국수/만두/칼국수,분식 및 김밥 전문점,삼성동,서울특별시 강남구 영동대로114길 56,37.5166174102167,127.064112767897,0.0,1144.0
해우리,한식,한식/백반/한정식,한식 음식점업,삼성동,서울특별시 강남구 테헤란로 415,37.5057764136568,127.051523839749,5.0,588.0
지구당,한식,한식/백반/한정식,한식 음식점업,삼성동,서울특별시 강남구 테헤란로 409,37.5053527021472,127.05037553932,2.4,700.0
JVL부대찌개삼성본점,한식,부대찌개/섞어찌개,한식 음식점업,삼성동,서울특별시 강남구 테헤란로81길 46,37.5097699656007,127.056257892765,3.3,271.0
전우소고기해장국,한식,해장국/감자탕,한식 음식점업,삼성동,서울특별시 강남구 테헤란로81길 46-3,37.5099231296086,127.056255964366,4.6,286.0
더스푼,한식,한식/백반/한정식,한식 음식점업,대치동,서울특별시 강남구 역삼로 517,37.5036624368529,127.059852234901,1.0,480.0
제일제면소,분식,국수/만두/칼국수,분식 및 김밥 전문점,삼성동,서울특별시 강남구 영동대로 513,37.5118203253706,127.059139102428,2.0,480.0
육족장,한식,한식/백반/한정식,한식 음식점업,삼성동,서울특별시 강남구 봉은사로 465,37.5124806862499,127.050454906535,0.0,839.0
본죽&비빔밥cafe선릉점,별식/퓨전요리,죽전문점,한식 음식점업,대치동,서울특별시 강남구 선릉로 424,37.502899170118496,127.050044694901,3.1,861.0
방콕9,별식/퓨전요리,동남아음식전문점,기타 외국식 음식점업,삼성동,서울특별시 강남구 영동대로 513,37.5118203253706,127.059139102428,2.7,480.0
맛나,한식,한식/백반/한정식,한식 음식점업,삼성동,서울특별시 강남구 테헤란로107길 11,37.5104254799265,127.065038423419,0.0,712.0
영지식당,한식,한식/백반/한정식,한식 음식점업,대치동,서울특별시 강남구 삼성로 212,37.4996105819766,127.065897098053,4.8,1146.0
꼬망쎄,한식,한식/백반/한정식,한식 음식점업,대치동,서울특별시 강남구 삼성로63길 9,37.4997838679796,127.059346697153,0.0,885.0
장진참치앤초밥,일식/수산물,참치전문점,일식 음식점업,대치동,서울특별시 강남구 선릉로86길 16,37.503258272613294,127.0510015023,3.7,771.0
살루쪼,양식,정통양식/경양식,서양식 음식점업,삼성동,서울특별시 강남구 봉은사로57길 6,37.5112867038071,127.04541388364,4.4,1162.0
참치명인,일식/수산물,참치전문점,일식 음식점업,대치동,서울특별시 강남구 테헤란로84길 16,37.506138745319,127.058520470266,4.0,181.0
아리노마마,일식,음식점-일식,일식 음식점업,대치동,서울특별시 강남구 도곡로63길 20,37.4984176401011,127.05412760123,3.5,1075.0
봉노가,한식,기타고기요리,한식 음식점업,대치동,서울특별시 강남구 선릉로86길 5-4,37.5034502132565,127.050218674857,2.0,813.0
카토멘,일식,음식점-일식,일식 음식점업,대치동,서울특별시 강남구 삼성로85길 39,37.5042215784262,127.054269276563,3.6,490.0
마포만두,분식,국수/만두/칼국수,분식 및 김밥 전문점,대치동,서울특별시 강남구 선릉로86길 8,37.5030558800612,127.050483801514,1.8,820.0
홍대포,일식/수산물,수산물전문음식점-종합점,한식 음식점업,대치동,서울특별시 강남구 테헤란로70길 16,37.5043938900755,127.053283110318,2.8,536.0
코엑스뽀모도로,양식,정통양식/경양식,서양식 음식점업,삼성동,서울특별시 강남구 영동대로 513,37.5118203253706,127.059139102428,2.0,480.0
경원수산2호점,일식/수산물,수산물전문음식점-종합,한식 음식점업,삼성동,서울특별시 강남구 삼성로100길 23-15,37.5110083526462,127.056751307266,5.0,384.0
쟌슨빌부대찌개,한식,부대찌개/섞어찌개,한식 음식점업,대치동,서울특별시 강남구 선릉로90길 72,37.5055520611944,127.055010291997,4.3,336.0
앤바,양식,정통양식/경양식,서양식 음식점업,대치동,서울특별시 강남구 삼성로85길 33,37.5042799811461,127.054811431542,0.0,456.0
강남교자,한식,한식/백반/한정식,한식 음식점업,대치동,서울특별시 강남구 삼성로85길 32,37.5047020772824,127.054636455439,0.0,428.0
치찌중화식탁,중식,중국음식/중국집,중식 음식점업,대치동,서울특별시 강남구 영동대로86길 28,37.508166313362096,127.066491767362,2.0,772.0
경성옥,한식,해장국/감자탕,한식 음식점업,대치동,서울특별시 강남구 역삼로 555,37.50499677951969,127.063353023441,5.0,575.0
착한무안뻘낙지,일식/수산물,낙지/오징어,한식 음식점업,삼성동,서울특별시 강남구 봉은사로108길 19,37.5137717914835,127.064329290311,0.0,894.0
힘난다,패스트푸드,패스트푸드,"피자, 햄버거, 샌드위치 및 유사 음식점업",삼성동,서울특별시 강남구 영동대로 513,37.5118203253706,127.059139102428,4.7,480.0
국제시장해장국,한식,해장국/감자탕,한식 음식점업,대치동,서울특별시 강남구 선릉로86길 42,37.503941866680094,127.053096544972,3.0,582.0
사이공키친,별식/퓨전요리,동남아음식전문점,기타 외국식 음식점업,대치동,서울특별시 강남구 영동대로85길 20-3,37.5071826631615,127.06175352685,5.0,356.0
햇살소반,한식,한식/백반/한정식,한식 음식점업,대치동,서울특별시 강남구 테헤란로78길 16,37.5050499630967,127.05532200064,5.0,360.0
동경규동,일식/수산물,음식점-일식,일식 음식점업,대치동,서울특별시 강남구 선릉로 420,37.5024863633718,127.050253504605,3.3,876.0
동래,일식/수산물,복전문,한식 음식점업,대치동,서울특별시 강남구 테헤란로84길 13,37.5063392109859,127.058800716647,3.6,172.0
남다른감자탕,한식,해장국/감자탕,한식 음식점업,대치동,서울특별시 강남구 테헤란로92길 13,37.507152848845,127.061403268825,4.5,326.0
신라다랑원,일식/수산물,음식점-일식,일식 음식점업,삼성동,서울특별시 강남구 봉은사로68길 8,37.5112864128918,127.049847915042,4.1,807.0
홍수계찜닭,닭/오리요리,찜닭전문점,한식 음식점업,삼성동,서울특별시 강남구 테헤란로87길 46,37.5109747661734,127.058188259504,3.8,372.0
아선재,한식,한식/백반/한정식,한식 음식점업,대치동,서울특별시 강남구 영동대로 333,37.5041436780828,127.064856631982,2.5,737.0
뱅앤로스,한식,기타고기요리,한식 음식점업,대치동,서울특별시 강남구 삼성로 434,37.5056903281506,127.057655196286,5.0,218.0
고피자,패스트푸드,피자전문,"피자, 햄버거, 샌드위치 및 유사 음식점업",대치동,서울특별시 강남구 선릉로64길 11-2,37.4980412690087,127.053261532356,3.7,1139.0
참한우곱창,한식,곱창/양구이전문,한식 음식점업,대치동,서울특별시 강남구 테헤란로88길 10,37.50683996708,127.059450446397,3.0,174.0
남산노포식당,한식,곱창/양구이전문,한식 음식점업,대치동,서울특별시 강남구 선릉로86길 24,37.50346193408409,127.051677531484,3.8,710.0
유리카모메,일식/수산물,음식점-일식,일식 음식점업,삼성동,서울특별시 강남구 삼성로95길 24,37.507686216985,127.053716584506,3.0,357.0
조개천국,일식/수산물,조개구이전문,한식 음식점업,대치동,서울특별시 강남구 선릉로86길 42,37.503941866680094,127.053096544972,3.5,582.0
더덮밥집,일식/수산물,음식점-일식,일식 음식점업,대치동,서울특별시 강남구 테헤란로92길 19,37.5067489414455,127.061600606484,0.0,353.0
송옥 대치사거리점,분식,라면김밥분식,한식 음식점업,대치동,서울특별시 강남구 역삼로 506,37.5030998762283,127.059361646034,1.5,525.0
수복방점,한식,갈비/삼겹살,한식 음식점업,대치동,서울특별시 강남구 선릉로86길 44-5,37.5037388136926,127.053619376899,4.7,568.0
청담동마녀김밥,분식,라면김밥분식,분식 및 김밥 전문점,대치동,서울특별시 강남구 삼성로85길 11,37.5045881509052,127.056164781276,2.9,368.0
모구모구돈부리,일식/수산물,음식점-일식,일식 음식점업,대치동,서울특별시 강남구 영동대로85길 34,37.5067059814339,127.060730226864,4.3,282.0
국대떡볶이,분식,떡볶이전문,분식 및 김밥 전문점,삼성동,서울특별시 강남구 삼성로 571,37.5123404849208,127.053194055546,2.7,659.0
전주비빔밥,한식,돌솥/비빕밥전문점,한식 음식점업,삼성동,서울특별시 강남구 테헤란로 517,37.5086083814458,127.05974496335,4.0,205.0
훈남닭발,닭/오리요리,닭내장/닭발요리,한식 음식점업,삼성동,서울특별시 강남구 영동대로 513,37.5118203253706,127.059139102428,0.0,480.0
7번가피자,패스트푸드,피자전문,"피자, 햄버거, 샌드위치 및 유사 음식점업",대치동,서울특별시 강남구 역삼로 530,37.503671252358,127.060960519718,0.0,524.0
배꼽집,한식,기타고기요리,한식 음식점업,삼성동,서울특별시 강남구 영동대로 513,37.5118203253706,127.059139102428,2.6,480.0
키친혁명,한식,한식/백반/한정식,한식 음식점업,삼성동,서울특별시 강남구 테헤란로113길 13,37.510864208189,127.065824738136,0.0,796.0
동경규동,일식/수산물,음식점-일식,일식 음식점업,삼성동,서울특별시 강남구 테헤란로83길 15,37.5083983535212,127.057134787174,4.0,100.0
화원일식,일식/수산물,음식점-일식,일식 음식점업,대치동,서울특별시 강남구 도곡로 510,37.4990133147849,127.06216110792,5.0,1035.0
마라테이블,중식,중국음식/중국집,중식 음식점업,대치동,서울특별시 강남구 선릉로86길 8,37.5030558800612,127.050483801514,4.4,820.0
자연의원죽,별식/퓨전요리,죽전문점,한식 음식점업,삼성동,서울특별시 강남구 영동대로112길 9,37.5151864973794,127.060929370717,0.0,884.0
정참치,일식/수산물,참치전문점,일식 음식점업,대치동,서울특별시 강남구 삼성로81길 22,37.5043520020351,127.055930238825,4.0,400.0
짬뽕신,중식,중국음식/중국집,중식 음식점업,삼성동,서울특별시 강남구 영동대로 513,37.5118203253706,127.059139102428,2.5,480.0
소공순대,별식/퓨전요리,순대전문점,한식 음식점업,대치동,서울특별시 강남구 선릉로82길 4,37.5023437546162,127.050447580158,5.0,874.0
연안식당,일식/수산물,횟집,한식 음식점업,삼성동,서울특별시 강남구 테헤란로87길 47,37.51072546106911,127.057433540361,5.0,344.0
너나들이,닭/오리요리,닭내장/닭발요리,한식 음식점업,삼성동,서울특별시 강남구 테헤란로83길 46,37.5104134449559,127.056724860171,4.0,321.0
대치동숯불갈비,한식,갈비/삼겹살,한식 음식점업,대치동,서울특별시 강남구 선릉로64길 15-6,37.4984219399841,127.053539460316,0.0,1091.0
훠궈야파르나스몰점,중식,중국음식/중국집,중식 음식점업,삼성동,서울특별시 강남구 테헤란로 521,37.50918435794689,127.060789660534,2.5,317.0
에그드랍파르나스점,패스트푸드,샌드위치전문점,"피자, 햄버거, 샌드위치 및 유사 음식점업",삼성동,서울특별시 강남구 테헤란로 521,37.50918435794689,127.060789660534,3.0,317.0
스쿨푸드딜리버리,분식,라면김밥분식,분식 및 김밥 전문점,삼성동,서울특별시 강남구 테헤란로77길 11-15,37.5067274791209,127.053264951586,0.0,410.0
에그셀런트,패스트푸드,샌드위치전문점,"피자, 햄버거, 샌드위치 및 유사 음식점업",대치동,서울특별시 강남구 선릉로86길 6,37.5030090135779,127.050258194081,2.3,839.0
하동관,한식,한식/백반/한정식,한식 음식점업,삼성동,서울특별시 강남구 영동대로 513,37.5118203253706,127.059139102428,3.1,480.0
강산애,한식,한식/백반/한정식,한식 음식점업,대치동,서울특별시 강남구 삼성로64길 51,37.5010948242976,127.064442266877,3.8,937.0
빵빵떡볶이,분식,떡볶이전문,분식 및 김밥 전문점,삼성동,서울특별시 강남구 삼성로 571,37.5123404849208,127.053194055546,5.0,659.0
치즈쇼피자,패스트푸드,피자전문,"피자, 햄버거, 샌드위치 및 유사 음식점업",대치동,서울특별시 강남구 도곡로77길 8,37.4988951550687,127.058634041631,0.0,976.0
네모오징어,일식/수산물,낙지/오징어,한식 음식점업,대치동,서울특별시 강남구 테헤란로114길 26,37.5079706026911,127.066810907256,3.0,799.0
그때그집,한식,족발/보쌈전문,한식 음식점업,대치동,서울특별시 강남구 삼성로82길 5,37.5051184000028,127.058250524643,4.7,284.0
종로화덕,한식,기타고기요리,한식 음식점업,삼성동,서울특별시 강남구 봉은사로 504,37.5129244418251,127.054102913996,3.0,670.0
리틀사이공파르나스몰점,별식/퓨전요리,동남아음식전문점,기타 외국식 음식점업,삼성동,서울특별시 강남구 테헤란로 521,37.50918435794689,127.060789660534,3.2,317.0
신사동덮밥,일식/수산물,음식점-일식,일식 음식점업,삼성동,서울특별시 강남구 삼성로 571,37.5123404849208,127.053194055546,0.0,659.0
지구당,일식/수산물,음식점-일식,일식 음식점업,삼성동,서울특별시 강남구 테헤란로 423,37.5061664333982,127.052966652655,2.4,454.0
봉초밥,일식/수산물,음식점-초밥전문,일식 음식점업,대치동,서울특별시 강남구 삼성로58길 31,37.4993597689388,127.063807963104,4.5,1065.0
배달왔소,한식,한식/백반/한정식,한식 음식점업,삼성동,서울특별시 강남구 삼성로103길 12,37.510386662713,127.053377092173,0.0,492.0
계절밥상,한식,한식/백반/한정식,한식 음식점업,삼성동,서울특별시 강남구 영동대로 513,37.5118203253706,127.059139102428,1.9,480.0
정 한뿌리죽,별식/퓨전요리,죽전문점,한식 음식점업,삼성동,서울특별시 강남구 테헤란로 517,37.5086083814458,127.05974496335,0.0,205.0
미스꼬레아,한식,한식/백반/한정식,한식 음식점업,대치동,서울특별시 강남구 삼성로 238,37.4986287111494,127.061385569605,4.5,1053.0
초가마을,한식,한식/백반/한정식,한식 음식점업,대치동,서울특별시 강남구 선릉로64길 12,37.4977889985827,127.053264717246,2.7,1166.0
응급실국물떡볶이,분식,떡볶이전문,분식 및 김밥 전문점,대치동,서울특별시 강남구 삼성로51길 10-20,37.4975604460191,127.060754314198,3.0,1152.0
민속칼국수,분식,국수/만두/칼국수,분식 및 김밥 전문점,대치동,서울특별시 강남구 역삼로92길 7,37.503993476815694,127.062958390452,4.5,613.0
에이원,분식,라면김밥분식,분식 및 김밥 전문점,삼성동,서울특별시 강남구 테헤란로63길 9,37.5057463981932,127.050031238553,0.0,714.0
소풍,분식,라면김밥분식,분식 및 김밥 전문점,대치동,서울특별시 강남구 역삼로 417,37.5013434606555,127.052676968465,2.0,832.0
청담,양식,정통양식/경양식,서양식 음식점업,대치동,서울특별시 강남구 삼성로 420,37.5045408800662,127.05814467629,0.0,347.0
삼성한식부페,한식,한식/백반/한정식,한식 음식점업,삼성동,서울특별시 강남구 삼성로 575,37.5127543841476,127.05312095781,0.0,700.0
오징어청춘,일식/수산물,낙지/오징어,한식 음식점업,대치동,서울특별시 강남구 선릉로86길 44,37.5039701646827,127.053254530311,1.3,570.0
베이크하우스,한식,한식/백반/한정식,한식 음식점업,삼성동,서울특별시 강남구 영동대로 510,37.5105341373798,127.062831384964,5.0,550.0
마샹라위,중식,중국음식/중국집,중식 음식점업,삼성동,서울특별시 강남구 삼성로104길 15,37.5110909488855,127.055811432183,3.8,420.0
신정,한식,한식/백반/한정식,한식 음식점업,삼성동,서울특별시 강남구 봉은사로 620,37.5144929673668,127.06323435452,0.0,901.0
이승재참치,일식/수산물,음식점-일식,일식 음식점업,대치동,서울특별시 강남구 역삼로63길 22,37.5025642370804,127.052096045207,3.8,754.0
밥맛나는세상,분식,라면김밥분식,분식 및 김밥 전문점,대치동,서울특별시 강남구 역삼로64길 5,37.5007783914217,127.053000779602,3.2,872.0
떡판왕,중식,중국음식/중국집,중식 음식점업,삼성동,서울특별시 강남구 테헤란로 423,37.5061664333982,127.052966652655,0.0,454.0
풍년참숯불갈비,한식,갈비/삼겹살,한식 음식점업,삼성동,서울특별시 강남구 영동대로 510,37.5105341373798,127.062831384964,4.3,550.0
걸작떡볶이,분식,떡볶이전문,분식 및 김밥 전문점,대치동,서울특별시 강남구 역삼로64길 19,37.4998713167778,127.053374141912,2.4,947.0
써브웨이봉은사역점,패스트푸드,패스트푸드,그외 기타 음식점업,삼성동,서울특별시 강남구 봉은사로 627,37.5151833507934,127.063938374488,2.8,1000.0
수하동,한식,한식/백반/한정식,한식 음식점업,대치동,서울특별시 강남구 삼성로 212,37.4996105819766,127.065897098053,0.0,1146.0
잇샐러드딜리버리,양식,정통양식/경양식,서양식 음식점업,삼성동,서울특별시 강남구 삼성로 571,37.5123404849208,127.053194055546,3.0,659.0
다운언더,양식,정통양식/경양식,서양식 음식점업,삼성동,서울특별시 강남구 봉은사로 452,37.5115233015139,127.04905311881,0.0,881.0
식후경,한식,한식/백반/한정식,한식 음식점업,대치동,서울특별시 강남구 테헤란로98길 28,37.5065331275808,127.062790919927,0.0,461.0
BHC치킨대치포스코점,닭/오리요리,후라이드/양념치킨,치킨 전문점,대치동,서울특별시 강남구 삼성로 417,37.5045984451458,127.057454025149,4.4,340.0
경성꽈배기,분식,스낵,분식 및 김밥 전문점,대치동,서울특별시 강남구 선릉로 320,37.4982668148962,127.052172988684,0.0,1154.0
직화한상,한식,한식/백반/한정식,한식 음식점업,대치동,서울특별시 강남구 테헤란로 440,37.505804183147696,127.056115540456,3.0,251.0
그레잇피자,패스트푸드,피자전문,"피자, 햄버거, 샌드위치 및 유사 음식점업",대치동,서울특별시 강남구 영동대로85길 20,37.507019770485,127.06166508028,3.5,351.0
히노아지,일식/수산물,음식점-일식,일식 음식점업,대치동,서울특별시 강남구 테헤란로 440,37.505804183147696,127.056115540456,1.0,251.0
삼성동명인등심,한식,한식/백반/한정식,한식 음식점업,삼성동,서울특별시 강남구 봉은사로86길 30,37.5114416285268,127.056847656648,3.6,430.0
이천가든코엑스,한식,한식/백반/한정식,한식 음식점업,삼성동,서울특별시 강남구 영동대로 513,37.5118203253706,127.059139102428,1.6,480.0
청춘극장,한식,한식/백반/한정식,한식 음식점업,삼성동,서울특별시 강남구 봉은사로72길 6,37.511661900998895,127.050601015806,4.0,773.0
탐라도야지,한식,한식/백반/한정식,한식 음식점업,삼성동,서울특별시 강남구 삼성로104길 13,37.5110809446752,127.055687134224,3.4,423.0
이타마에바루,한식,한식/백반/한정식,한식 음식점업,삼성동,서울특별시 강남구 봉은사로111길 6,37.515663676207296,127.065425555087,3.9,1119.0
삼원가든,한식,한식/백반/한정식,한식 음식점업,삼성동,서울특별시 강남구 영동대로 510,37.5105341373798,127.062831384964,3.2,550.0
3호집,한식,한식/백반/한정식,한식 음식점업,삼성동,서울특별시 강남구 선릉로112길 48,37.5120603122444,127.047485330569,4.0,1031.0
수타우동겐,분식,우동전문점,분식 및 김밥 전문점,대치동,서울특별시 강남구 테헤란로70길 28,37.503775939464,127.053754630269,4.3,557.0
브라운돈까스,양식,정통양식/경양식,NaN,대치동,서울특별시 강남구 영동대로85길 20,37.507019770485,127.06166508028,1.7,351.0
어원,일식/수산물,음식점-일식,일식 음식점업,대치동,서울특별시 강남구 삼성로58길 13,37.4988167176276,127.06236713636,4.6,1063.0
한탕,분식,라면김밥분식,분식 및 김밥 전문점,삼성동,서울특별시 강남구 삼성로104길 7,37.5108787529554,127.055191986969,3.3,425.0
미즈호노스시야,일식/수산물,음식점-초밥전문,일식 음식점업,대치동,서울특별시 강남구 삼성로71길 45,37.5011571588687,127.055291879566,3.0,754.0
스쿨푸드,분식,라면김밥분식,분식 및 김밥 전문점,삼성동,서울특별시 강남구 테헤란로77길 11-15,37.5067274791209,127.053264951586,4.0,410.0
피자헛,한식,한식/백반/한정식,한식 음식점업,대치동,서울특별시 강남구 도곡로 532,37.4997891366711,127.064549034324,3.0,1059.0
샌드랑,패스트푸드,샌드위치전문점,"피자, 햄버거, 샌드위치 및 유사 음식점업",삼성동,서울특별시 강남구 영동대로 513,37.5118203253706,127.059139102428,0.0,480.0
새묵호,일식/수산물,음식점-일식,일식 음식점업,대치동,서울특별시 강남구 테헤란로64길 9,37.5044880347843,127.051540139422,0.0,652.0
유림,한식,한식/백반/한정식,한식 음식점업,대치동,서울특별시 강남구 테헤란로 440,37.505804183147696,127.056115540456,3.6,251.0
스시마이우키친,일식/수산물,음식점-초밥전문,일식 음식점업,대치동,서울특별시 강남구 테헤란로 440,37.505804183147696,127.056115540456,2.3,251.0
김태완스시,일식/수산물,음식점-초밥전문,일식 음식점업,대치동,서울특별시 강남구 선릉로64길 17,37.498215623792895,127.05365515759,2.9,1110.0
원데이노마드,한식,한식/백반/한정식,한식 음식점업,대치동,서울특별시 강남구 삼성로 414,37.50412814871991,127.058364755558,0.0,395.0
오름곰탕,한식,설렁탕집,한식 음식점업,삼성동,서울특별시 강남구 삼성로95길 23,37.50738170089151,127.053946642705,3.0,338.0
브라운돈까스,양식,정통양식/경양식,서양식 음식점업,대치동,서울특별시 강남구 테헤란로 440,37.505804183147696,127.056115540456,1.7,251.0
신정,한식,한식/백반/한정식,한식 음식점업,삼성동,서울특별시 강남구 영동대로 510,37.5105341373798,127.062831384964,0.0,550.0
문어앤치킨,분식,라면김밥분식,분식 및 김밥 전문점,삼성동,서울특별시 강남구 삼성로104길 24,37.5111339457672,127.056681859074,3.3,399.0
쿡디퍼탄,일식/수산물,음식점-일식,일식 음식점업,대치동,서울특별시 강남구 삼성로85길 33,37.5042799811461,127.054811431542,0.0,456.0
오뎅n카레,분식,라면김밥분식,분식 및 김밥 전문점,대치동,서울특별시 강남구 선릉로82길 45,37.50360421254209,127.053688936785,5.0,575.0
청담프리미엄앞족발,한식,족발/보쌈전문,한식 음식점업,삼성동,서울특별시 강남구 삼성로104길 15,37.5110909488855,127.055811432183,4.1,420.0
도담도시락,패스트푸드,도시락전문점,한식 음식점업,삼성동,서울특별시 강남구 삼성로103길 12,37.510386662713,127.053377092173,0.0,492.0
타오,일식/수산물,음식점-일식,일식 음식점업,대치동,서울특별시 강남구 테헤란로78길 16,37.5050499630967,127.05532200064,0.0,360.0
스테이,한식,한식/백반/한정식,한식 음식점업,대치동,서울특별시 강남구 역삼로67길 33,37.5034847636914,127.052276679157,3.0,670.0
스윗밸런스,한식,한식/백반/한정식,한식 음식점업,대치동,서울특별시 강남구 테헤란로 440,37.505804183147696,127.056115540456,5.0,251.0
파파밸리피자,패스트푸드,패스트푸드,그외 기타 음식점업,삼성동,서울특별시 강남구 테헤란로 517,37.5086083814458,127.05974496335,2.3,205.0
BBQ치킨,패스트푸드,패스트푸드,그외 기타 음식점업,대치동,서울특별시 강남구 선릉로 326,37.4987612570104,127.052031026147,2.8,1110.0
사계절,한식,한식/백반/한정식,한식 음식점업,삼성동,서울특별시 강남구 테헤란로107길 6,37.510222553418494,127.065583889791,3.7,747.0
바른식당,한식,한식/백반/한정식,한식 음식점업,대치동,서울특별시 강남구 테헤란로86길 17,37.5062911881768,127.059559126487,0.0,219.0
정고깃집,한식,한식/백반/한정식,한식 음식점업,삼성동,서울특별시 강남구 삼성로100길 23-14,37.5105076950363,127.05724398862,2.0,321.0
온더보더코엑스,양식,정통양식/경양식,서양식 음식점업,삼성동,서울특별시 강남구 영동대로 513,37.5118203253706,127.059139102428,3.7,480.0
도동집,한식,한식/백반/한정식,한식 음식점업,대치동,서울특별시 강남구 삼성로81길 36,37.5039178755402,127.054601103032,3.0,500.0
직화한상,한식,한식/백반/한정식,한식 음식점업,대치동,서울특별시 강남구 영동대로85길 20,37.507019770485,127.06166508028,3.0,351.0
반아디자인그룹삼성동지점고감식당,한식,기타고기요리,한식 음식점업,삼성동,서울특별시 강남구 테헤란로107길 11,37.5104254799265,127.065038423419,0.0,712.0
소풍,분식,떡볶이전문,분식 및 김밥 전문점,삼성동,서울특별시 강남구 영동대로 513,37.5118203253706,127.059139102428,3.5,480.0
한솔도시락,패스트푸드,도시락전문점,한식 음식점업,대치동,서울특별시 강남구 삼성로57길 22,37.4977915597162,127.059224668164,2.3,1103.0
아리가또맘마,일식/수산물,음식점-일식,일식 음식점업,삼성동,서울특별시 강남구 봉은사로68길 21,37.5107354542822,127.050805041229,0.0,703.0
마포갈매기,한식,갈비/삼겹살,한식 음식점업,삼성동,서울특별시 강남구 영동대로 513,37.5118203253706,127.059139102428,2.3,480.0
가람,한식,한식/백반/한정식,한식 음식점업,대치동,서울특별시 강남구 도곡로93길 13,37.5011683346208,127.06462230619,0.0,941.0
대도식당강남직영점,한식,갈비/삼겹살,한식 음식점업,삼성동,서울특별시 강남구 삼성로 545,37.5101701181846,127.054465695593,3.3,404.0
명우돈가,양식,정통양식/경양식,서양식 음식점업,삼성동,서울특별시 강남구 삼성로96길 6,37.5084387962408,127.05655742395,4.0,138.0
이태리어부,한식,한식/백반/한정식,한식 음식점업,대치동,서울특별시 강남구 역삼로63길 24,37.5027796518486,127.051991531653,5.0,743.0
당나라,중식,중국음식/중국집,중식 음식점업,삼성동,서울특별시 강남구 테헤란로83길 42,37.5101169393989,127.056830391636,4.3,287.0
도스타코스,양식,정통양식/경양식,서양식 음식점업,삼성동,서울특별시 강남구 테헤란로69길 10,37.5065878009184,127.052701186037,4.5,462.0
일상정원,한식,한식/백반/한정식,한식 음식점업,삼성동,서울특별시 강남구 테헤란로87길 58,37.5120056433882,127.057519244112,4.6,485.0
가마로강정,닭/오리요리,후라이드/양념치킨,치킨 전문점,대치동,서울특별시 강남구 선릉로 344,37.5005024109571,127.051172098342,3.0,984.0
상까스&상화교자코엑스,양식,정통양식/경양식,서양식 음식점업,삼성동,서울특별시 강남구 테헤란로87길 58,37.5120056433882,127.057519244112,2.4,485.0
채선당M,별식/퓨전요리,샤브샤브전문,한식 음식점업,삼성동,서울특별시 강남구 영동대로 513,37.5118203253706,127.059139102428,1.4,480.0
참치공간,일식/수산물,참치전문점,일식 음식점업,대치동,서울특별시 강남구 선릉로82길 45,37.50360421254209,127.053688936785,4.4,575.0
바르도,한식,한식/백반/한정식,한식 음식점업,삼성동,서울특별시 강남구 삼성로119길 43,37.515091739073696,127.047967148842,0.0,1197.0
오면가면칼국수,분식,국수/만두/칼국수,분식 및 김밥 전문점,대치동,서울특별시 강남구 삼성로71길 25,37.501647773188,127.056925626008,0.0,671.0
육탄,한식,한식/백반/한정식,한식 음식점업,대치동,서울특별시 강남구 선릉로86길 31,37.5042034482249,127.052007459091,0.0,636.0
밥장인,한식,한식/백반/한정식,한식 음식점업,삼성동,서울특별시 강남구 테헤란로81길 56-6,37.5102382865264,127.056229374074,0.0,318.0
이비가짬뽕,중식,중국음식/중국집,중식 음식점업,대치동,서울특별시 강남구 도곡로 532,37.4997891366711,127.064549034324,3.2,1059.0
치킨공식,닭/오리요리,후라이드/양념치킨,치킨 전문점,삼성동,서울특별시 강남구 테헤란로77길 17,37.5074824372614,127.054148964473,4.0,319.0
일일향,중식,중국음식/중국집,중식 음식점업,삼성동,서울특별시 강남구 영동대로 510,37.5105341373798,127.062831384964,3.7,550.0
이태리부대찌개,한식,부대찌개/섞어찌개,NaN,삼성동,서울특별시 강남구 봉은사로112길 6,37.5144970431419,127.064885825467,3.6,987.0
쫀득이족발,한식,족발/보쌈전문,한식 음식점업,대치동,서울특별시 강남구 선릉로86길 38,37.5037949921976,127.052759094902,2.0,615.0
죽이야기,별식/퓨전요리,죽전문점,한식 음식점업,삼성동,서울특별시 강남구 테헤란로87길 57,37.511282073424,127.057177692137,4.5,407.0
삼성돈구이,한식,한식/백반/한정식,한식 음식점업,삼성동,서울특별시 강남구 봉은사로108길 3-6,37.514382566632094,127.064084117674,5.0,934.0
마포갈매기,한식,한식/백반/한정식,한식 음식점업,대치동,서울특별시 강남구 역삼로63길 23,37.5027055777404,127.051743648168,3.0,764.0
포포빈,한식,한식/백반/한정식,한식 음식점업,대치동,서울특별시 강남구 영동대로82길 29,37.5075760529388,127.06705334464,5.0,820.0
명원,중식,중국음식/중국집,중식 음식점업,삼성동,서울특별시 강남구 봉은사로 478,37.5126253472715,127.052760619947,4.0,708.0
원죽전문점,양식,정통양식/경양식,서양식 음식점업,삼성동,서울특별시 강남구 영동대로112길 9,37.5151864973794,127.060929370717,4.0,884.0
볼륨,한식,한식/백반/한정식,한식 음식점업,삼성동,서울특별시 강남구 삼성로95길 14,37.5080624046391,127.054560146777,0.0,286.0
원조양평해장국,한식,해장국/감자탕,한식 음식점업,삼성동,서울특별시 강남구 영동대로106길 29,37.5141705032051,127.063475931725,4.0,883.0
우소우소,한식,한식/백반/한정식,한식 음식점업,삼성동,서울특별시 강남구 봉은사로 610,37.5142096590769,127.061597692078,2.8,804.0
백암가선순대,별식/퓨전요리,순대전문점,한식 음식점업,대치동,서울특별시 강남구 삼성로64길 35,37.5006792612527,127.06316945488,4.5,910.0
경성갈비,한식,갈비/삼겹살,한식 음식점업,대치동,서울특별시 강남구 테헤란로108길 8,37.5088265910197,127.065669157082,3.2,710.0
우밀가,한식,한식/백반/한정식,한식 음식점업,대치동,서울특별시 강남구 삼성로81길 35,37.5037304828169,127.054829669224,3.6,506.0
가장맛있는족발,한식,족발/보쌈전문,한식 음식점업,삼성동,서울특별시 강남구 봉은사로57길 5,37.5112210767274,127.045098003519,0.0,1186.0
클라우드,한식,한식/백반/한정식,한식 음식점업,대치동,서울특별시 강남구 테헤란로70길 12,37.504735168954,127.053143077013,2.8,520.0
왕가네왕만두,분식,국수/만두/칼국수,분식 및 김밥 전문점,대치동,서울특별시 강남구 역삼로 420,37.5009665968304,127.052873995445,3.7,859.0
김봉남포장마차,한식,한식/백반/한정식,한식 음식점업,삼성동,서울특별시 강남구 봉은사로 467,37.5125179976069,127.050612794605,0.0,831.0
므이므이,중식,중국음식/중국집,중식 음식점업,삼성동,서울특별시 강남구 영동대로 513,37.5118203253706,127.059139102428,5.0,480.0
향호면옥,한식,냉면집,한식 음식점업,대치동,서울특별시 강남구 선릉로64길 15-10,37.4987361907064,127.053399781109,4.0,1063.0
하나로유비씨,한식,한식/백반/한정식,한식 음식점업,대치동,서울특별시 강남구 삼성로81길 32,37.5040834879127,127.055028802824,0.0,464.0
조희숙의한식공방,한식,한식/백반/한정식,한식 음식점업,삼성동,서울특별시 강남구 영동대로112길 66,37.5158013266684,127.065740574258,0.0,1148.0
르푸도레,양식,정통양식/경양식,서양식 음식점업,삼성동,서울특별시 강남구 영동대로 513,37.5118203253706,127.059139102428,3.8,480.0
아이벤토리,분식,라면김밥분식,분식 및 김밥 전문점,삼성동,서울특별시 강남구 선릉로94길 12,37.5057965440914,127.049544252981,0.0,753.0
본촌치킨,닭/오리요리,후라이드/양념치킨,치킨 전문점,삼성동,서울특별시 강남구 영동대로115길 9,37.514774499271695,127.058977586234,0.0,800.0
평양옥,한식,한식/백반/한정식,한식 음식점업,대치동,서울특별시 강남구 선릉로86길 31,37.5041585815151,127.052030646855,0.0,637.0
글래드강남코엑스센터,부페,종합부페,NaN,대치동,서울특별시 강남구 테헤란로 610,37.5088175499617,127.064526865103,3.2,611.0
송,일식/수산물,음식점-일식,일식 음식점업,대치동,서울특별시 강남구 선릉로76길 27,37.5021099157788,127.052746454064,3.5,758.0
브루클린더버거조인트,패스트푸드,패스트푸드,그외 기타 음식점업,삼성동,서울특별시 강남구 봉은사로84길 10,37.5126116796616,127.055554733374,3.5,585.0
예가낙지마을,일식/수산물,낙지/오징어,한식 음식점업,삼성동,서울특별시 강남구 영동대로 513,37.5118203253706,127.059139102428,4.0,480.0
하얼빈,중식,중국음식/중국집,중식 음식점업,삼성동,서울특별시 강남구 선릉로96길 5-14,37.506685585416896,127.049171042083,3.0,765.0
그랜드힐컨벤션,양식,정통양식/경양식,서양식 음식점업,대치동,서울특별시 강남구 역삼로 607,37.50609641074129,127.066811616459,4.1,817.0
인생역전,한식,한식/백반/한정식,한식 음식점업,삼성동,서울특별시 강남구 영동대로 634,37.5167511254792,127.059393938856,0.0,1023.0
한솥,패스트푸드,도시락전문점,한식 음식점업,대치동,서울특별시 강남구 선릉로 326,37.4987612570104,127.052031026147,2.3,1110.0
스노우폭스,분식,라면김밥분식,분식 및 김밥 전문점,삼성동,서울특별시 강남구 테헤란로 415,37.5056954176911,127.051536174939,3.3,590.0
안에,한식,한식/백반/한정식,한식 음식점업,삼성동,서울특별시 강남구 삼성로 550,37.510839366328895,127.054773967785,4.2,442.0
모던호,양식,정통양식/경양식,서양식 음식점업,삼성동,서울특별시 강남구 삼성로95길 24,37.507686216985,127.053716584506,0.0,357.0
블랙스톤,양식,정통양식/경양식,서양식 음식점업,삼성동,서울특별시 강남구 영동대로 513,37.5118203253706,127.059139102428,0.0,480.0
내림손삼계탕,닭/오리요리,삼계탕전문,한식 음식점업,삼성동,서울특별시 강남구 봉은사로112길 16-4,37.5138190794363,127.064611492239,0.0,914.0
신촌설렁탕,한식,설렁탕집,한식 음식점업,삼성동,서울특별시 강남구 선릉로 530,37.5069607731686,127.047538819136,2.7,905.0
언더프레셔,한식,한식/백반/한정식,한식 음식점업,삼성동,서울특별시 강남구 영동대로106길 37,37.5142292231478,127.064063409118,3.7,919.0
전라도맛집,한식,부대찌개/섞어찌개,한식 음식점업,대치동,서울특별시 강남구 선릉로 420,37.5024863633718,127.050253504605,0.0,876.0
일조룡,중식,중국음식/중국집,중식 음식점업,대치동,서울특별시 강남구 삼성로 212,37.4996105819766,127.065897098053,4.5,1146.0
해중천중화요리,중식,중국음식/중국집,중식 음식점업,삼성동,서울특별시 강남구 봉은사로72길 8,37.5115546035736,127.050704176953,4.2,759.0
쿠모,양식,정통양식/경양식,서양식 음식점업,삼성동,서울특별시 강남구 봉은사로72길 4,37.51177829887649,127.050509050447,0.0,788.0
성북동청국장,한식,한식/백반/한정식,한식 음식점업,삼성동,서울특별시 강남구 봉은사로104길 6,37.5139508947592,127.061917659944,4.1,791.0
담소소사골순대,별식/퓨전요리,순대전문점,한식 음식점업,삼성동,서울특별시 강남구 선릉로112길 18,37.5113377445462,127.045039960669,4.7,1195.0
향,한식,갈비/삼겹살,한식 음식점업,삼성동,서울특별시 강남구 영동대로106길 45,37.5143527094414,127.064865002822,0.0,974.0
칠랑고,양식,정통양식/경양식,서양식 음식점업,대치동,서울특별시 강남구 역삼로67길 19,37.5025870644718,127.052695185885,4.6,719.0
새마을식당,닭/오리요리,후라이드/양념치킨,치킨 전문점,대치동,서울특별시 강남구 테헤란로64길 24,37.5033247917842,127.051430444003,1.7,737.0
zip,한식,한식/백반/한정식,한식 음식점업,삼성동,서울특별시 강남구 봉은사로68길 6-3,37.5112304442938,127.049611087474,0.0,822.0
아그라,별식/퓨전요리,동남아음식전문점,기타 외국식 음식점업,삼성동,서울특별시 강남구 영동대로 513,37.5118203253706,127.059139102428,3.0,480.0
홍대돈부리,일식/수산물,음식점-일식,일식 음식점업,삼성동,서울특별시 강남구 영동대로 513,37.51293939692889,127.057100286394,2.1,591.0
죠샌드위치,분식,라면김밥분식,분식 및 김밥 전문점,삼성동,서울특별시 강남구 영동대로 513,37.5118203253706,127.059139102428,5.0,480.0
듬북담북,양식,정통양식/경양식,서양식 음식점업,대치동,서울특별시 강남구 선릉로86길 26,37.5035171721282,127.051823864438,4.0,697.0
김영희강남동태찜,한식,한식/백반/한정식,한식 음식점업,삼성동,서울특별시 강남구 삼성로95길 23,37.50738170089151,127.053946642705,4.5,338.0
대독장삼성역점,한식,한식/백반/한정식,한식 음식점업,대치동,서울특별시 강남구 영동대로85길 9,37.5070834352286,127.062874525423,2.7,455.0
유타로,일식/수산물,음식점-일식,일식 음식점업,대치동,서울특별시 강남구 선릉로86길 15,37.5035180984722,127.050817251518,4.0,766.0
남도사계고운님,한식,한식/백반/한정식,한식 음식점업,대치동,서울특별시 강남구 삼성로81길 22,37.5043520020351,127.055930238825,3.8,400.0
또래오래대치점,닭/오리요리,후라이드/양념치킨,치킨 전문점,대치동,서울특별시 강남구 역삼로88길 11,37.5031796750606,127.06146432024,5.0,594.0
네네치킨,닭/오리요리,후라이드/양념치킨,치킨 전문점,대치동,서울특별시 강남구 삼성로 417,37.5045984451458,127.057454025149,1.0,340.0
샐러드박스,한식,한식/백반/한정식,한식 음식점업,삼성동,서울특별시 강남구 테헤란로 421,37.5059826128027,127.052516554823,0.0,498.0
스시효,일식/수산물,음식점-초밥전문,일식 음식점업,삼성동,서울특별시 강남구 테헤란로 517,37.5086083814458,127.05974496335,2.8,205.0
옥상달빛,닭/오리요리,후라이드/양념치킨,치킨 전문점,삼성동,서울특별시 강남구 테헤란로 517,37.5086083814458,127.05974496335,0.0,205.0
엘노어쇼룸바,한식,한식/백반/한정식,한식 음식점업,삼성동,서울특별시 강남구 선릉로 514,37.5055951465088,127.049150940996,0.0,793.0
델리유,양식,정통양식/경양식,서양식 음식점업,삼성동,서울특별시 강남구 삼성로107길 18,37.5112797364615,127.052381730231,4.2,623.0
운봉,중식,중국음식/중국집,중식 음식점업,대치동,서울특별시 강남구 삼성로 348,37.5026656109985,127.059140894154,2.4,567.0
청준닭볶이,닭/오리요리,닭도리탕전문,한식 음식점업,대치동,서울특별시 강남구 선릉로76길 23,37.5019627682194,127.052375086633,3.2,791.0
최우영식당삼성점,일식/수산물,음식점-일식,일식 음식점업,삼성동,서울특별시 강남구 삼성로 620,37.514957844146096,127.052606708949,2.3,931.0
신촌설렁탕,한식,설렁탕집,한식 음식점업,삼성동,서울특별시 강남구 봉은사로114길 32,37.5129326739394,127.065323871611,2.7,889.0
미스터순두부보쌈,한식,족발/보쌈전문,한식 음식점업,삼성동,서울특별시 강남구 영동대로 513,37.51293939692889,127.057100286394,1.8,591.0
더펍비스트로,양식,정통양식/경양식,서양식 음식점업,삼성동,서울특별시 강남구 삼성로108길 23,37.5123354549655,127.055942803727,4.2,545.0
밤장어,한식,한식/백반/한정식,한식 음식점업,대치동,서울특별시 강남구 삼성로85길 33,37.5042799811461,127.054811431542,3.0,456.0
루샌드위치,패스트푸드,패스트푸드,그외 기타 음식점업,대치동,서울특별시 강남구 역삼로70길 28,37.4996520538745,127.054123339891,3.7,945.0
리츠빈,양식,정통양식/경양식,서양식 음식점업,삼성동,서울특별시 강남구 테헤란로81길 52-4,37.51007566103289,127.056174866079,5.0,304.0
도명골청국장,한식,한식/백반/한정식,한식 음식점업,삼성동,서울특별시 강남구 봉은사로114길 38,37.512653463780495,127.065338665087,0.0,870.0
세광양대창,한식,한식/백반/한정식,한식 음식점업,삼성동,서울특별시 강남구 테헤란로83길 29,37.509270754788496,127.056931526852,3.5,195.0
소운빙,패스트푸드,패스트푸드,그외 기타 음식점업,대치동,서울특별시 강남구 선릉로68길 9,37.4991070714384,127.052456413943,4.6,1059.0
우리집젤라또,한식,한식/백반/한정식,한식 음식점업,대치동,서울특별시 강남구 선릉로68길 7,37.499060571738,127.052276050254,4.0,1070.0
대치꽈배기,분식,라면김밥분식,분식 및 김밥 전문점,대치동,서울특별시 강남구 선릉로 338,37.4998831063711,127.051473983905,2.5,1026.0
로네펠트,한식,한식/백반/한정식,한식 음식점업,삼성동,서울특별시 강남구 테헤란로69길 13,37.5067094904148,127.052145428505,4.6,506.0
김밥천국,분식,라면김밥분식,분식 및 김밥 전문점,삼성동,서울특별시 강남구 삼성로 517,37.5080786526444,127.055464807235,2.0,208.0
자연은맛있다,한식,한식/백반/한정식,한식 음식점업,삼성동,서울특별시 강남구 영동대로 513,37.5118203253706,127.059139102428,3.7,480.0
소노야코엑스점,일식/수산물,음식점-일식,일식 음식점업,삼성동,서울특별시 강남구 영동대로 513,37.5118203253706,127.059139102428,1.1,480.0
이남장,한식,한식/백반/한정식,한식 음식점업,대치동,서울특별시 강남구 테헤란로64길 14,37.5039518334423,127.050970103005,5.0,726.0
앵그리버거,한식,한식/백반/한정식,한식 음식점업,삼성동,서울특별시 강남구 선릉로 514,37.5055951465088,127.049150940996,0.0,793.0
치즈쇼피자,패스트푸드,피자전문,"피자, 햄버거, 샌드위치 및 유사 음식점업",대치동,서울특별시 강남구 선릉로64길 11-2,37.4980412690087,127.053261532356,0.0,1139.0
맛난칼국수,분식,라면김밥분식,NaN,대치동,서울특별시 강남구 삼성로 212,37.4996105819766,127.065897098053,5.0,1146.0
놀부부대찌개철판구이,한식,부대찌개/섞어찌개,한식 음식점업,대치동,서울특별시 강남구 선릉로86길 37,37.504100503981,127.052653443004,1.0,599.0
청국장서갈비,한식,갈비/삼겹살,한식 음식점업,대치동,서울특별시 강남구 선릉로 420,37.5024863633718,127.050253504605,3.3,876.0
밀밭,분식,라면김밥분식,분식 및 김밥 전문점,삼성동,서울특별시 강남구 영동대로 513,37.51293939692889,127.057100286394,3.7,591.0
처갓집양념치킨,닭/오리요리,후라이드/양념치킨,치킨 전문점,대치동,서울특별시 강남구 선릉로66길 8,37.4984411732828,127.052566612482,2.5,1122.0
대치동함흥냉면,한식,냉면집,한식 음식점업,대치동,서울특별시 강남구 도곡로 424,37.4972596148278,127.056924267264,3.1,1157.0
고운님,일식/수산물,수산물전문음식점-종합,한식 음식점업,대치동,서울특별시 강남구 영동대로86길 11,37.508073508150495,127.06501120492,3.8,641.0
삼성골,한식,한식/백반/한정식,한식 음식점업,대치동,서울특별시 강남구 영동대로86길 12,37.5078134808243,127.065172799171,4.5,654.0
한솥도시락,패스트푸드,도시락전문점,한식 음식점업,대치동,서울특별시 강남구 선릉로90길 56,37.5050715168437,127.053512070975,2.3,472.0
올래곱창,한식,곱창/양구이전문,한식 음식점업,대치동,서울특별시 강남구 역삼로 420,37.5009665968304,127.052873995445,2.5,859.0
제주은희네해장국,한식,해장국/감자탕,한식 음식점업,삼성동,서울특별시 강남구 삼성로91길 28,37.506768682657,127.053909136476,2.5,354.0
바비,양식,정통양식/경양식,서양식 음식점업,대치동,서울특별시 강남구 테헤란로86길 10,37.5066829296312,127.058966060412,0.0,151.0
생선지존진땡이,한식,한식/백반/한정식,한식 음식점업,삼성동,서울특별시 강남구 영동대로106길 41,37.5142409210849,127.064402615689,0.0,938.0
피자리아시오,패스트푸드,피자전문,"피자, 햄버거, 샌드위치 및 유사 음식점업",대치동,서울특별시 강남구 삼성로63길 15,37.4996271909073,127.058907590324,4.2,897.0
오더,한식,한식/백반/한정식,한식 음식점업,삼성동,서울특별시 강남구 봉은사로82길 27,37.5114577219408,127.055478783418,3.3,469.0
수랏간,한식,한식/백반/한정식,한식 음식점업,대치동,서울특별시 강남구 역삼로 410,37.5007168959931,127.052074160519,3.2,920.0
작은어촌,한식,한식/백반/한정식,한식 음식점업,대치동,서울특별시 강남구 선릉로 318,37.4980610443852,127.052356538383,0.0,1168.0
김밥천국,분식,라면김밥분식,분식 및 김밥 전문점,대치동,서울특별시 강남구 테헤란로114길 20,37.5083485623725,127.066749647748,2.3,797.0
신전떡볶이,분식,떡볶이전문,분식 및 김밥 전문점,대치동,서울특별시 강남구 선릉로 420,37.5024863633718,127.050253504605,2.1,876.0
전주집,한식,한식/백반/한정식,한식 음식점업,삼성동,서울특별시 강남구 테헤란로77길 11-9,37.5069394130027,127.05385042857,5.0,354.0
깻잎치킨,닭/오리요리,후라이드/양념치킨,치킨 전문점,삼성동,서울특별시 강남구 테헤란로87길 17,37.5087322643722,127.058329544526,2.6,131.0
더드숑,한식,한식/백반/한정식,한식 음식점업,삼성동,서울특별시 강남구 봉은사로71길 31,37.5142364731663,127.049177058017,3.5,1054.0
현의요리,한식,한식/백반/한정식,한식 음식점업,삼성동,서울특별시 강남구 봉은사로68길 7,37.5114685158259,127.050083144403,3.0,800.0
서울만두,분식,국수/만두/칼국수,분식 및 김밥 전문점,삼성동,서울특별시 강남구 테헤란로 517,37.5086083814458,127.05974496335,2.0,205.0
찰스김밥,분식,라면김밥분식,분식 및 김밥 전문점,대치동,서울특별시 강남구 선릉로 416,37.5020549005612,127.050383378895,2.8,900.0
본정돈까스,양식,돈가스전문점,서양식 음식점업,대치동,서울특별시 강남구 삼성로63길 17,37.4995715111052,127.058704717464,4.6,902.0
금복당,패스트푸드,패스트푸드,그외 기타 음식점업,삼성동,서울특별시 강남구 봉은사로68길 7,37.5114685158259,127.050083144403,4.7,800.0
레몬도시락,패스트푸드,도시락전문점,한식 음식점업,삼성동,서울특별시 강남구 삼성로 517,37.5080786526444,127.055464807235,2.0,208.0
블랙랩,한식,한식/백반/한정식,한식 음식점업,삼성동,서울특별시 강남구 선릉로96길 5-16,37.50670260322389,127.049046409587,3.7,776.0
해초록사랑,일식/수산물,횟집,한식 음식점업,삼성동,서울특별시 강남구 삼성로 539,37.509838119311,127.054639549785,3.8,368.0
신호탕떡볶이,분식,떡볶이전문,분식 및 김밥 전문점,삼성동,서울특별시 강남구 삼성로103길 12,37.510386662713,127.053377092173,0.0,492.0
일우별관,한식,한식/백반/한정식,한식 음식점업,삼성동,서울특별시 강남구 영동대로96길 37,37.5116636532106,127.065509367365,0.0,816.0
우노,한식,한식/백반/한정식,한식 음식점업,대치동,서울특별시 강남구 테헤란로70길 10,37.504978610728,127.053162623111,4.7,503.0
교토가츠규봉은사역점,일식/수산물,음식점-일식,일식 음식점업,삼성동,서울특별시 강남구 영동대로 602,37.5145808720792,127.060688099709,3.0,813.0
오징어여행,일식/수산물,낙지/오징어,한식 음식점업,삼성동,서울특별시 강남구 삼성로91길 36,37.506565939995,127.053346165754,0.0,408.0
롤링핀,패스트푸드,패스트푸드,그외 기타 음식점업,삼성동,서울특별시 강남구 테헤란로 517,37.5086083814458,127.05974496335,1.5,205.0
코끼리분식,분식,라면김밥분식,분식 및 김밥 전문점,대치동,서울특별시 강남구 선릉로 338,37.4998831063711,127.051473983905,0.0,1026.0
김영희강남동태찜,일식/수산물,해물찜/탕전문,한식 음식점업,대치동,서울특별시 강남구 선릉로62길 13,37.49752088351391,127.053539523479,4.5,1186.0
고피자,한식,한식/백반/한정식,한식 음식점업,삼성동,서울특별시 강남구 영동대로 513,37.5118203253706,127.059139102428,5.0,480.0
홍스나나,일식/수산물,음식점-일식,일식 음식점업,삼성동,서울특별시 강남구 봉은사로61길 17,37.5122112585445,127.046092105877,4.0,1148.0
쫀득이보쌈,한식,족발/보쌈전문,한식 음식점업,대치동,서울특별시 강남구 선릉로86길 38,37.5037949921976,127.052759094902,2.0,615.0
강남집밥,한식,한식/백반/한정식,한식 음식점업,삼성동,서울특별시 강남구 테헤란로107길 10,37.5104834759741,127.065535392317,3.0,755.0
파크하얏트서울이벤트,한식,한식/백반/한정식,한식 음식점업,대치동,서울특별시 강남구 테헤란로 606,37.50872539286409,127.06426786396,0.0,586.0
잇쇼우,일식/수산물,음식점-일식,일식 음식점업,삼성동,서울특별시 강남구 선릉로 524,37.5066430806136,127.048368528927,3.4,836.0
치쿠린,일식/수산물,음식점-일식,일식 음식점업,삼성동,서울특별시 강남구 삼성로 517,37.5080786526444,127.055464807235,5.0,208.0
강남동태찜,일식/수산물,매운탕전문,한식 음식점업,대치동,서울특별시 강남구 테헤란로 440,37.505804183147696,127.056115540456,4.5,251.0
강남면옥,한식,냉면집,한식 음식점업,대치동,서울특별시 강남구 도곡로 428,37.4974610767342,127.057328865525,2.6,1133.0
더착한피자,패스트푸드,피자전문,"피자, 햄버거, 샌드위치 및 유사 음식점업",대치동,서울특별시 강남구 역삼로78길 15,37.5015605650684,127.057288637623,4.0,678.0
그리드잇,패스트푸드,패스트푸드,그외 기타 음식점업,삼성동,서울특별시 강남구 영동대로 513,37.5118203253706,127.059139102428,0.0,480.0
북창동순두부,한식,순두부전문,한식 음식점업,대치동,서울특별시 강남구 역삼로63길 24,37.5027796518486,127.051991531653,2.7,743.0
캠토,패스트푸드,패스트푸드,그외 기타 음식점업,대치동,서울특별시 강남구 도곡로78길 6,37.4977170504442,127.058920252959,0.0,1109.0
일호식당,한식,한식/백반/한정식,한식 음식점업,대치동,서울특별시 강남구 역삼로 459,37.5028312884027,127.057317900582,3.1,537.0
고씨떡볶이,분식,라면김밥분식,분식 및 김밥 전문점,삼성동,서울특별시 강남구 봉은사로84길 34,37.5111566378124,127.0561386319,4.7,416.0
경평면옥,한식,냉면집,한식 음식점업,삼성동,서울특별시 강남구 삼성로104길 12,37.5108469651786,127.055724015725,3.5,399.0
죠스떡볶이,분식,떡볶이전문,분식 및 김밥 전문점,대치동,서울특별시 강남구 선릉로64길 5,37.497837889095294,127.052619471603,2.6,1181.0
티엔티엔티엔,중식,중국음식/중국집,중식 음식점업,삼성동,서울특별시 강남구 테헤란로77길 22,37.5080058117068,127.054244157979,4.0,313.0
김밥천국,분식,라면김밥분식,분식 및 김밥 전문점,대치동,서울특별시 강남구 삼성로85길 42,37.5046227559395,127.053732632053,2.3,489.0
하남돼지집,한식,갈비/삼겹살,한식 음식점업,대치동,서울특별시 강남구 선릉로64길 9,37.4979764793066,127.053047473787,2.2,1153.0
오감국시,분식,국수/만두/칼국수,분식 및 김밥 전문점,대치동,서울특별시 강남구 테헤란로78길 14-9,37.5049739053172,127.054825303673,3.0,394.0
둥이,한식,갈비/삼겹살,한식 음식점업,대치동,서울특별시 강남구 삼성로 307,37.4994038322821,127.060278844525,3.8,943.0
강남칼국수,분식,국수/만두/칼국수,분식 및 김밥 전문점,삼성동,서울특별시 강남구 영동대로 602,37.5145808720792,127.060688099709,5.0,813.0
강남목호등대,일식/수산물,횟집,한식 음식점업,삼성동,서울특별시 강남구 삼성로95길 15,37.5077374237006,127.054485070126,4.8,289.0
더그릴앤커리,양식,정통양식/경양식,서양식 음식점업,대치동,서울특별시 강남구 삼성로85길 11,37.5045881509052,127.056164781276,0.0,368.0
본투비,양식,정통양식/경양식,서양식 음식점업,삼성동,서울특별시 강남구 삼성로104길 11,37.5110261634086,127.055597334288,0.0,421.0
대치닭칼국수,분식,국수/만두/칼국수,분식 및 김밥 전문점,대치동,서울특별시 강남구 역삼로63길 19-10,37.5023778708335,127.051329324465,0.0,816.0
전주한정식,한식,한정식전문,한식 음식점업,대치동,서울특별시 강남구 선릉로82길 25,37.5030506672959,127.052078585333,4.5,716.0
두루치기유선생,한식,한식/백반/한정식,한식 음식점업,삼성동,서울특별시 강남구 봉은사로114길 42,37.5121576635909,127.065310913566,1.5,834.0
평안도순대국,별식/퓨전요리,순대전문점,한식 음식점업,대치동,서울특별시 강남구 선릉로90길 38,37.5047374674151,127.052306084963,5.0,580.0
수궁갈비,한식,갈비/삼겹살,NaN,삼성동,서울특별시 강남구 봉은사로97길 4,37.5142923006748,127.058395429387,2.6,741.0
들녁,한식,한식/백반/한정식,한식 음식점업,삼성동,서울특별시 강남구 영동대로114길 11,37.5155462538982,127.060845679101,0.0,920.0
선릉마실길,한식,한식/백반/한정식,한식 음식점업,삼성동,서울특별시 강남구 선릉로 530,37.5069607731686,127.047538819136,4.2,905.0
신동궁감자탕뼈숯불구이,한식,해장국/감자탕,한식 음식점업,대치동,서울특별시 강남구 선릉로86길 39,37.5041021363552,127.052857006252,3.6,585.0
보리밀,한식,한식/백반/한정식,한식 음식점업,삼성동,서울특별시 강남구 봉은사로108길 3-6,37.514382566632094,127.064084117674,2.8,934.0
지호한방삼계탕삼성점,닭/오리요리,삼계탕전문,한식 음식점업,삼성동,서울특별시 강남구 영동대로115길 16,37.5145179926578,127.058449152759,2.0,766.0
오성식당,한식,갈비/삼겹살,한식 음식점업,대치동,서울특별시 강남구 삼성로84길 6,37.5051893952398,127.058113908216,4.6,275.0
명가교동,중식,중국음식/중국집,중식 음식점업,대치동,서울특별시 강남구 도곡로63길 12,37.4977889555692,127.054384334893,1.9,1136.0
수궁식당,한식,한식/백반/한정식,한식 음식점업,삼성동,서울특별시 강남구 봉은사로97길 4,37.5142923006748,127.058395429387,2.6,741.0
백구분식,분식,라면김밥분식,분식 및 김밥 전문점,대치동,서울특별시 강남구 테헤란로114길 30,37.5077917492503,127.066982795508,0.0,814.0
용수사,일식/수산물,음식점-일식,일식 음식점업,대치동,서울특별시 강남구 삼성로86길 7,37.505764570423295,127.057925714358,5.0,210.0
보리밀,한식,한식/백반/한정식,한식 음식점업,삼성동,서울특별시 강남구 봉은사로108길 5,37.51436194776831,127.063756333738,2.8,915.0
담,한식,한식/백반/한정식,한식 음식점업,삼성동,서울특별시 강남구 봉은사로78길 12,37.511949624670095,127.05276915982,4.1,650.0
오니기리와이규동,일식/수산물,음식점-일식,일식 음식점업,대치동,서울특별시 강남구 선릉로86길 15,37.5035180984722,127.050817251518,2.1,766.0
고운님,일식/수산물,수산물전문음식점-종합,한식 음식점업,대치동,서울특별시 강남구 삼성로81길 22,37.5043520020351,127.055930238825,3.8,400.0
죠샌드위치삼성2호점,패스트푸드,샌드위치전문점,"피자, 햄버거, 샌드위치 및 유사 음식점업",대치동,서울특별시 강남구 테헤란로82길 11,37.5062251452598,127.058055653055,0.0,160.0
파티오,양식,정통양식/경양식,서양식 음식점업,대치동,서울특별시 강남구 역삼로 442,37.5018244161744,127.055351331676,0.0,681.0
선릉떡볶이,분식,라면김밥분식,분식 및 김밥 전문점,대치동,서울특별시 강남구 테헤란로 422,37.5053094289938,127.05284175388,4.5,506.0
미웨이,한식,한식/백반/한정식,한식 음식점업,삼성동,서울특별시 강남구 삼성로 517,37.5080786526444,127.055464807235,1.0,208.0
안동찜닭해물떡찜,한식,한식/백반/한정식,NaN,삼성동,서울특별시 강남구 영동대로 513,37.5118203253706,127.059139102428,1.9,480.0
쿠사파스타,양식,스파게티전문점,서양식 음식점업,대치동,서울특별시 강남구 삼성로69길 11,37.5015964332017,127.058396551124,5.0,675.0
옛날한우곱창,한식,한식/백반/한정식,한식 음식점업,삼성동,서울특별시 강남구 삼성로103길 11,37.5101447619275,127.053549814059,4.6,464.0
예자네밥상,한식,한식/백반/한정식,한식 음식점업,대치동,서울특별시 강남구 테헤란로114길 30,37.5077917492503,127.066982795508,4.6,814.0
호남식당,한식,한식/백반/한정식,한식 음식점업,대치동,서울특별시 강남구 선릉로68길 12,37.4990285238823,127.052774071075,0.0,1054.0
고운님한우곱창,한식,한식/백반/한정식,한식 음식점업,대치동,서울특별시 강남구 삼성로81길 22,37.5043520020351,127.055930238825,3.0,400.0
화포식당,한식,한식/백반/한정식,한식 음식점업,대치동,서울특별시 강남구 선릉로86길 44-4,37.5038087160793,127.053347050414,3.9,578.0
매드포갈릭,양식,패밀리레스토랑,서양식 음식점업,삼성동,서울특별시 강남구 봉은사로 516,37.5132096614596,127.055965726981,4.1,639.0
맥도날드삼성역점,패스트푸드,패스트푸드,그외 기타 음식점업,삼성동,서울특별시 강남구 삼성로92길 29,37.50831223595969,127.058764633486,1.8,115.0
아모제푸드스칼렛테헤란로,양식,정통양식/경양식,서양식 음식점업,대치동,서울특별시 강남구 테헤란로 424,37.5054855075187,127.053450292224,0.0,450.0
브라운돈까스,양식,정통양식/경양식,서양식 음식점업,삼성동,서울특별시 강남구 선릉로 520,37.5059594417971,127.048512932932,1.8,837.0
맛바라기,한식,한식/백반/한정식,한식 음식점업,대치동,서울특별시 강남구 테헤란로 504,37.5066157960883,127.057326866248,5.0,121.0
강남동태찜,일식/수산물,수산물전문음식점-종합,한식 음식점업,대치동,서울특별시 강남구 삼성로85길 39,37.5042215784262,127.054269276563,4.5,490.0
더덕순대,한식,한식/백반/한정식,한식 음식점업,대치동,서울특별시 강남구 선릉로86길 16-3,37.5031795476382,127.051296560702,5.0,756.0
키친바락,일식/수산물,음식점-일식,일식 음식점업,대치동,서울특별시 강남구 삼성로84길 23,37.5058215151578,127.059417982099,4.6,250.0
지지미,일식/수산물,음식점-일식,일식 음식점업,대치동,서울특별시 강남구 삼성로58길 29,37.4991958020377,127.063583820523,3.1,1071.0
강남꿀돼지,한식,한식/백반/한정식,한식 음식점업,삼성동,서울특별시 강남구 봉은사로108길 3-14,37.514459034192896,127.064637440369,5.0,970.0
전주집,한식,한식/백반/한정식,한식 음식점업,삼성동,서울특별시 강남구 삼성로100길 13,37.5098254691699,127.056438171267,5.0,269.0
한국피자헛한티,패스트푸드,피자전문,"피자, 햄버거, 샌드위치 및 유사 음식점업",대치동,서울특별시 강남구 선릉로 340,37.500216191012896,127.051435841576,3.0,997.0
미스터순두부,한식,순두부전문,한식 음식점업,삼성동,서울특별시 강남구 영동대로 511,37.5103484923478,127.061012608393,1.8,415.0
루이스바,한식,한식/백반/한정식,한식 음식점업,삼성동,서울특별시 강남구 봉은사로68길 21,37.5107354542822,127.050805041229,0.0,703.0
포메인,별식/퓨전요리,동남아음식전문점,기타 외국식 음식점업,삼성동,서울특별시 강남구 영동대로 513,37.5102300305658,127.058582195981,2.0,296.0
피키이터,양식,정통양식/경양식,서양식 음식점업,삼성동,서울특별시 강남구 영동대로112길 15,37.5154727178395,127.061796803494,0.0,940.0
스시타,일식/수산물,음식점-초밥전문,일식 음식점업,삼성동,서울특별시 강남구 삼성로119길 8,37.5162393367391,127.050610900388,5.0,1145.0
왕푸징마라탕,중식,중국음식/중국집,중식 음식점업,삼성동,서울특별시 강남구 테헤란로 517,37.5086083814458,127.05974496335,3.3,205.0
란주쿠,일식/수산물,음식점-일식,일식 음식점업,삼성동,서울특별시 강남구 봉은사로82길 31,37.5112066275711,127.055628994342,3.0,438.0
오도루,일식/수산물,음식점-일식,일식 음식점업,대치동,서울특별시 강남구 삼성로58길 39,37.4994544349864,127.064383566909,2.9,1082.0
쏘울메이트,양식,정통양식/경양식,서양식 음식점업,삼성동,서울특별시 강남구 테헤란로77길 22,37.5080058117068,127.054244157979,5.0,313.0
뮤즈,양식,정통양식/경양식,서양식 음식점업,삼성동,서울특별시 강남구 테헤란로83길 41,37.510033594489,127.05654866251,0.0,286.0
비빔밥,한식,돌솥/비빕밥전문점,한식 음식점업,대치동,서울특별시 강남구 삼성로 212,37.4996105819766,127.065897098053,4.6,1146.0
사리원,한식,한식/백반/한정식,한식 음식점업,삼성동,서울특별시 강남구 영동대로 513,37.5118203253706,127.059139102428,2.5,480.0
전셰프부페플러스,부페,종합부페,NaN,대치동,서울특별시 강남구 테헤란로78길 16,37.5050499630967,127.05532200064,5.0,360.0
한죽,한식,한식/백반/한정식,한식 음식점업,대치동,서울특별시 강남구 선릉로86길 42,37.503941866680094,127.053096544972,5.0,582.0
싸리골,한식,한식/백반/한정식,한식 음식점업,대치동,서울특별시 강남구 선릉로86길 24,37.50346193408409,127.051677531484,2.7,710.0
튀김아저씨,분식,라면김밥분식,분식 및 김밥 전문점,대치동,서울특별시 강남구 삼성로 212,37.4996105819766,127.065897098053,4.3,1146.0
둘둘치킨,닭/오리요리,후라이드/양념치킨,치킨 전문점,삼성동,서울특별시 강남구 테헤란로69길 9,37.506503266843296,127.052272452298,1.5,501.0
비사벌전주콩나물국밥,한식,한식/백반/한정식,한식 음식점업,대치동,서울특별시 강남구 도곡로 440,37.497876881986095,127.058624205858,5.0,1089.0
쇼헤이,분식,라면김밥분식,분식 및 김밥 전문점,삼성동,서울특별시 강남구 봉은사로59길 12,37.5118039073561,127.045859751433,1.0,1147.0
스테이지나인,한식,한식/백반/한정식,한식 음식점업,삼성동,서울특별시 강남구 테헤란로79길 6,37.5072772460546,127.055531458387,5.0,201.0
한솥,패스트푸드,도시락전문점,한식 음식점업,대치동,서울특별시 강남구 선릉로90길 56,37.5050715168437,127.053512070975,2.3,472.0
둘둘치킨,닭/오리요리,후라이드/양념치킨,치킨 전문점,대치동,서울특별시 강남구 도곡로63길 12,37.4977889555692,127.054384334893,1.0,1136.0
삼성국수,분식,국수/만두/칼국수,분식 및 김밥 전문점,삼성동,서울특별시 강남구 영동대로 611,37.51471467511929,127.059385563017,2.8,799.0
홍운장,중식,중국음식/중국집,중식 음식점업,대치동,서울특별시 강남구 삼성로 341,37.5018797881823,127.058901937518,3.2,649.0
호텔인나인,양식,정통양식/경양식,서양식 음식점업,삼성동,서울특별시 강남구 영동대로 618,37.5156742002609,127.059939118227,3.6,913.0
KFC,닭/오리요리,후라이드/양념치킨,치킨 전문점,삼성동,서울특별시 강남구 봉은사로 449,37.5119806977954,127.04878715339,1.4,927.0
최고야,한식,한식/백반/한정식,NaN,삼성동,서울특별시 강남구 삼성로100길 23-2,37.510166501776,127.057395324706,4.0,282.0
의정부부대찌개,한식,부대찌개/섞어찌개,한식 음식점업,삼성동,서울특별시 강남구 영동대로106길 38,37.51395982950329,127.064179890475,1.0,902.0
먹쇠네,분식,라면김밥분식,분식 및 김밥 전문점,대치동,서울특별시 강남구 영동대로86길 10-7,37.507415801992494,127.065019408228,0.0,641.0
신흥식당,한식,한식/백반/한정식,한식 음식점업,대치동,서울특별시 강남구 역삼로 406,37.5006053310786,127.051645802823,3.4,951.0
셀라프리베,한식,한식/백반/한정식,한식 음식점업,대치동,서울특별시 강남구 삼성로82길 19,37.5054234689116,127.059219388537,0.0,279.0
크레이지후라이,분식,라면김밥분식,분식 및 김밥 전문점,대치동,서울특별시 강남구 테헤란로78길 16,37.5050499630967,127.05532200064,4.0,360.0
나능이능이버섯백숙,한식,한식/백반/한정식,한식 음식점업,대치동,서울특별시 강남구 삼성로75길 32-11,37.503633548026,127.05510233476,4.4,504.0
외고집설렁탕,한식,설렁탕집,한식 음식점업,삼성동,서울특별시 강남구 삼성로 555,37.511012496208,127.053889506251,3.3,507.0
바이킹스워프,부페,종합부페,NaN,삼성동,서울특별시 강남구 영동대로 513,37.5118203253706,127.059139102428,3.3,480.0
참치공방,일식/수산물,참치전문점,일식 음식점업,대치동,서울특별시 강남구 삼성로85길 39,37.5042305880772,127.054269162912,3.6,489.0
싸리골빈대떡파전,한식,파전전문,한식 음식점업,대치동,서울특별시 강남구 선릉로86길 24,37.50346193408409,127.051677531484,2.7,710.0
대원정,한식,한식/백반/한정식,한식 음식점업,삼성동,서울특별시 강남구 테헤란로77길 17,37.5074824372614,127.054148964473,2.0,319.0
다사랑,닭/오리요리,후라이드/양념치킨,치킨 전문점,삼성동,서울특별시 강남구 삼성로103길 12,37.510386662713,127.053377092173,0.0,492.0
마라전설마라탕,중식,중국음식/중국집,중식 음식점업,대치동,서울특별시 강남구 영동대로85길 30,37.50680796493,127.061090889254,3.3,308.0
국수마을,한식,한식/백반/한정식,한식 음식점업,삼성동,서울특별시 강남구 봉은사로114길 42,37.5121576635909,127.065310913566,0.0,834.0
카발,양식,정통양식/경양식,서양식 음식점업,대치동,서울특별시 강남구 선릉로82길 7,37.5026700105716,127.050680958202,3.7,834.0
한솥도시락,패스트푸드,도시락전문점,한식 음식점업,대치동,서울특별시 강남구 선릉로86길 7,37.5032886761775,127.050299891841,2.3,817.0
해장옥,한식,설렁탕집,한식 음식점업,대치동,서울특별시 강남구 선릉로86길 37,37.504100503981,127.052653443004,3.0,599.0
두꺼비식당,한식,한식/백반/한정식,한식 음식점업,대치동,서울특별시 강남구 역삼로 421,37.5014547499448,127.053071405956,3.4,803.0
밥드림,한식,한식/백반/한정식,한식 음식점업,삼성동,서울특별시 강남구 봉은사로84길 11,37.5125777208538,127.05581532572,5.0,575.0
네모오징어,한식,한식/백반/한정식,한식 음식점업,삼성동,서울특별시 강남구 테헤란로77길 17,37.5074824372614,127.054148964473,3.7,319.0
원조을지로골뱅이,한식,한식/백반/한정식,한식 음식점업,삼성동,서울특별시 강남구 삼성로100길 23-20,37.5107241974196,127.057275199192,0.0,345.0
병천순대,별식/퓨전요리,순대전문점,한식 음식점업,대치동,서울특별시 강남구 선릉로90길 70,37.50548781738,127.054864066254,3.0,351.0
위드인씨앤씨,한식,한식/백반/한정식,한식 음식점업,삼성동,서울특별시 강남구 영동대로115길 12,37.514727378142894,127.058718005948,0.0,792.0
빕스,양식,패밀리레스토랑,서양식 음식점업,삼성동,서울특별시 강남구 영동대로 513,37.5118203253706,127.059139102428,2.0,480.0
투뿔등심고담삼성점,한식,갈비/삼겹살,NaN,삼성동,서울특별시 강남구 테헤란로87길 33,37.5098191857712,127.057908690998,2.8,242.0
일일향,한식,한식/백반/한정식,한식 음식점업,삼성동,서울특별시 강남구 봉은사로 620,37.5144929673668,127.06323435452,3.7,901.0
만래옥,한식,갈비/삼겹살,한식 음식점업,대치동,서울특별시 강남구 테헤란로88길 22,37.506159733987694,127.060024507341,4.0,259.0
여신김밥,분식,라면김밥분식,분식 및 김밥 전문점,대치동,서울특별시 강남구 선릉로90길 70,37.50548781738,127.054864066254,4.0,351.0
치킨뱅이,닭/오리요리,후라이드/양념치킨,치킨 전문점,삼성동,서울특별시 강남구 테헤란로69길 9,37.506503266843296,127.052272452298,1.0,501.0
참나무바베큐,양식,정통양식/경양식,서양식 음식점업,삼성동,서울특별시 강남구 삼성로91길 30,37.5067129941236,127.053706248301,0.0,372.0
뜸들이다,한식,한식/백반/한정식,한식 음식점업,대치동,서울특별시 강남구 삼성로 238,37.4986287111494,127.061385569605,0.0,1053.0
에그드랍,패스트푸드,샌드위치전문점,"피자, 햄버거, 샌드위치 및 유사 음식점업",대치동,서울특별시 강남구 삼성로85길 11,37.5045881509052,127.056164781276,5.0,368.0
직화한상스타필드,한식,한식/백반/한정식,한식 음식점업,삼성동,서울특별시 강남구 영동대로 513,37.5118203253706,127.059139102428,0.0,480.0
긴자카레,일식/수산물,음식점-일식,일식 음식점업,대치동,서울특별시 강남구 역삼로 406,37.5006053310786,127.051645802823,4.7,951.0
빈센트,양식,정통양식/경양식,서양식 음식점업,대치동,서울특별시 강남구 삼성로85길 11,37.5045881509052,127.056164781276,0.0,368.0
돈그리아,한식,기타고기요리,한식 음식점업,대치동,서울특별시 강남구 선릉로86길 6-5,37.5027956911556,127.050622816807,3.6,829.0
스시한판,일식/수산물,음식점-초밥전문,일식 음식점업,삼성동,서울특별시 강남구 영동대로 513,37.51293939692889,127.057100286394,1.8,591.0
제이제이홈,한식,한식/백반/한정식,한식 음식점업,대치동,서울특별시 강남구 영동대로 424,37.5074924116854,127.064452915868,3.5,590.0
가족회관,한식,한식/백반/한정식,한식 음식점업,삼성동,서울특별시 강남구 테헤란로 517,37.5086083814458,127.05974496335,0.0,205.0
스시애,일식/수산물,음식점-초밥전문,일식 음식점업,대치동,서울특별시 강남구 선릉로64길 7,37.4979479998461,127.052866884829,2.6,1162.0
배가무닭볶음탕,일식/수산물,음식점-일식,일식 음식점업,대치동,서울특별시 강남구 선릉로86길 30,37.5036282828868,127.052195693976,4.7,664.0
소소한식당,한식,한식/백반/한정식,한식 음식점업,대치동,서울특별시 강남구 삼성로 319,37.5003458886534,127.059769413585,4.7,831.0
깐부치킨,닭/오리요리,후라이드/양념치킨,치킨 전문점,삼성동,서울특별시 강남구 봉은사로 629,37.5151671240436,127.064164815065,2.6,1009.0
바오바오,중식,중국음식/중국집,중식 음식점업,삼성동,서울특별시 강남구 봉은사로 516,37.5132096614596,127.055965726981,5.0,639.0
삼원가든,한식,기타고기요리,한식 음식점업,삼성동,서울특별시 강남구 봉은사로 620,37.5144929673668,127.06323435452,3.2,901.0
본도시락대치은마점,패스트푸드,도시락전문점,한식 음식점업,대치동,서울특별시 강남구 도곡로 521,37.5000129036481,127.063223018663,0.0,976.0
마초야,양식,돈가스전문점,서양식 음식점업,대치동,서울특별시 강남구 역삼로64길 18,37.4998865263604,127.053023352934,3.4,959.0
강릉집,일식/수산물,수산물전문음식점-종합,한식 음식점업,대치동,서울특별시 강남구 도곡로63길 23,37.4984147421243,127.053765738322,5.0,1085.0
중앙해장,한식,해장국/감자탕,한식 음식점업,대치동,서울특별시 강남구 영동대로86길 17,37.5082753009988,127.065461122209,3.9,683.0
깐부치킨,닭/오리요리,후라이드/양념치킨,치킨 전문점,대치동,서울특별시 강남구 삼성로 345,37.5022927010462,127.058704485683,3.0,601.0
경복궁블랙,한식,한식/백반/한정식,한식 음식점업,삼성동,서울특별시 강남구 영동대로 513,37.5118203253706,127.059139102428,4.0,480.0
마실,한식,족발/보쌈전문,한식 음식점업,대치동,서울특별시 강남구 선릉로64길 15-11,37.4987519443116,127.053116847033,5.0,1071.0
신한국촌,한식,기타고기요리,한식 음식점업,대치동,서울특별시 강남구 영동대로85길 17,37.50687136615969,127.062266401817,1.0,407.0
향로식당,한식,한식/백반/한정식,한식 음식점업,대치동,서울특별시 강남구 삼성로84길 29,37.5059878303927,127.059936178693,5.0,266.0
서울덮밥,한식,한식/백반/한정식,한식 음식점업,삼성동,서울특별시 강남구 영동대로 513,37.5118203253706,127.059139102428,3.5,480.0
가야한식,한식,한식/백반/한정식,한식 음식점업,삼성동,서울특별시 강남구 선릉로 514,37.5055951465088,127.049150940996,5.0,793.0
뽕나무쟁이,한식,족발/보쌈전문,한식 음식점업,대치동,서울특별시 강남구 역삼로65길 33,37.50334671502151,127.051916500948,4.1,703.0
스낵코너,분식,스낵,분식 및 김밥 전문점,삼성동,서울특별시 강남구 봉은사로114길 43,37.5130241359243,127.066634873474,0.0,985.0
수림복국,일식/수산물,복전문,한식 음식점업,삼성동,서울특별시 강남구 테헤란로77길 11-13,37.506783077783,127.05345652998,4.3,392.0
한성양갈비구이,한식,갈비/삼겹살,한식 음식점업,대치동,서울특별시 강남구 삼성로81길 36,37.5039178755402,127.054601103032,4.6,500.0
피자스쿨,패스트푸드,피자전문,"피자, 햄버거, 샌드위치 및 유사 음식점업",삼성동,서울특별시 강남구 봉은사로 474,37.5123579883076,127.052006131015,5.0,729.0
죠샌드위치,패스트푸드,샌드위치전문점,"피자, 햄버거, 샌드위치 및 유사 음식점업",대치동,서울특별시 강남구 삼성로 345,37.5022927010462,127.058704485683,3.7,601.0
세이로켄마,한식,한식/백반/한정식,한식 음식점업,삼성동,서울특별시 강남구 테헤란로81길 48,37.5098502391093,127.056155082319,4.0,283.0
이화수육개장,한식,한식/백반/한정식,한식 음식점업,대치동,서울특별시 강남구 테헤란로86길 16,37.506314974996094,127.059151648115,3.2,192.0
원조감자탕일미집,한식,해장국/감자탕,한식 음식점업,삼성동,서울특별시 강남구 테헤란로77길 11-8,37.5071643823693,127.053813657136,3.0,352.0
얌샘김밥,분식,라면김밥분식,분식 및 김밥 전문점,대치동,서울특별시 강남구 테헤란로104길 12,37.50826208459151,127.064929676858,1.3,636.0
바스버거선릉점,패스트푸드,패스트푸드,"피자, 햄버거, 샌드위치 및 유사 음식점업",대치동,서울특별시 강남구 삼성로85길 39,37.5042305880772,127.054269162912,3.5,489.0
켄마,한식,기타고기요리,한식 음식점업,삼성동,서울특별시 강남구 삼성로108길 18,37.5120269572326,127.055675215523,4.6,521.0
삼성동보쌈,한식,족발/보쌈전문,한식 음식점업,삼성동,서울특별시 강남구 삼성로111길 7,37.51325447946169,127.052560371492,0.0,774.0
꽃보다등심,일식/수산물,음식점-일식,일식 음식점업,삼성동,서울특별시 강남구 테헤란로77길 23,37.5078503835892,127.053963349369,3.0,336.0
동경,양식,돈가스전문점,서양식 음식점업,삼성동,서울특별시 강남구 영동대로 513,37.5118203253706,127.059139102428,1.2,480.0
온드린,한식,한식/백반/한정식,한식 음식점업,삼성동,서울특별시 강남구 테헤란로 517,37.5086083814458,127.05974496335,0.0,205.0
참치그라,일식/수산물,참치전문점,일식 음식점업,대치동,서울특별시 강남구 선릉로82길 40-3,37.5031799435509,127.053592501087,3.9,618.0
강정이기가막혀,닭/오리요리,후라이드/양념치킨,치킨 전문점,대치동,서울특별시 강남구 선릉로76길 7,37.5015291474615,127.051113866405,1.0,898.0
오발탄,한식,한식/백반/한정식,한식 음식점업,삼성동,서울특별시 강남구 삼성로 606,37.5136667143351,127.053403534679,4.2,772.0
송탄부대찌개,한식,부대찌개/섞어찌개,한식 음식점업,대치동,서울특별시 강남구 선릉로86길 38,37.5037949921976,127.052759094902,3.0,615.0
온새미로,한식,한식/백반/한정식,한식 음식점업,대치동,서울특별시 강남구 삼성로85길 42,37.5046227559395,127.053732632053,4.9,489.0
이레샌드위치,패스트푸드,패스트푸드,그외 기타 음식점업,삼성동,서울특별시 강남구 영동대로96길 37,37.5116636532106,127.065509367365,0.0,816.0
충무김밥,분식,라면김밥분식,분식 및 김밥 전문점,대치동,서울특별시 강남구 역삼로63길 20,37.5024295460819,127.052154297857,0.0,762.0
신불떡볶이,분식,라면김밥분식,분식 및 김밥 전문점,삼성동,서울특별시 강남구 봉은사로103길 6,37.5150038564702,127.061757425653,5.0,891.0
스시츠카무,일식/수산물,음식점-일식,일식 음식점업,삼성동,서울특별시 강남구 테헤란로 521,37.50918435794689,127.060789660534,3.4,317.0
매운국물떡볶이밀방떡,분식,라면김밥분식,분식 및 김밥 전문점,대치동,서울특별시 강남구 선릉로 334,37.499577867777695,127.051613559422,4.0,1048.0
일일향,중식,중국음식/중국집,중식 음식점업,삼성동,서울특별시 강남구 테헤란로83길 20,37.508789739738894,127.057627545023,3.7,128.0
유키즈시,일식/수산물,음식점-일식,일식 음식점업,대치동,서울특별시 강남구 영동대로86길 17,37.5082753009988,127.065461122209,4.1,683.0
동래복국,일식/수산물,복전문,한식 음식점업,대치동,서울특별시 강남구 테헤란로84길 13,37.5063392109859,127.058800716647,3.6,172.0
본죽&비빔밥CAFE,한식,돌솥/비빕밥전문점,한식 음식점업,대치동,서울특별시 강남구 테헤란로88길 10,37.50683996708,127.059450446397,3.0,174.0
버닝스톤,양식,스테이크전문점,서양식 음식점업,대치동,서울특별시 강남구 역삼로64길 7,37.5006161270084,127.052991519258,4.8,888.0
국시랑만두,분식,국수/만두/칼국수,분식 및 김밥 전문점,삼성동,서울특별시 강남구 삼성로91길 30,37.5067129941236,127.053706248301,0.0,372.0
매드포갈릭,양식,패밀리레스토랑,서양식 음식점업,삼성동,서울특별시 강남구 영동대로 520,37.5136291761859,127.061118558878,4.1,728.0
연타발,한식,곱창/양구이전문,한식 음식점업,대치동,서울특별시 강남구 테헤란로 428,37.5056790588235,127.053990750252,3.5,398.0
족발의달인,한식,족발/보쌈전문,한식 음식점업,대치동,서울특별시 강남구 도곡로 516,37.499172940488,127.062973394068,1.0,1048.0
번패티번,패스트푸드,패스트푸드,그외 기타 음식점업,삼성동,서울특별시 강남구 테헤란로 517,37.5086083814458,127.05974496335,2.5,205.0
뽀모도로스파게티,양식,스파게티전문점,서양식 음식점업,삼성동,서울특별시 강남구 영동대로 513,37.5118203253706,127.059139102428,2.0,480.0
간코블랙,일식/수산물,음식점-일식,일식 음식점업,삼성동,서울특별시 강남구 테헤란로 517,37.5086083814458,127.05974496335,3.0,205.0
청화당,중식,중국음식/중국집,중식 음식점업,대치동,서울특별시 강남구 테헤란로78길 16,37.5050499630967,127.05532200064,3.0,360.0
교대밀밭,분식,국수/만두/칼국수,분식 및 김밥 전문점,대치동,서울특별시 강남구 영동대로85길 9,37.5070834352286,127.062874525423,3.7,455.0
정통원조한방삼계탕찜닭,닭/오리요리,삼계탕전문,한식 음식점업,대치동,서울특별시 강남구 테헤란로68길 25,37.5036333626325,127.052828997841,2.6,623.0
푸라닭치킨,닭/오리요리,후라이드/양념치킨,치킨 전문점,대치동,서울특별시 강남구 역삼로 433,37.5018433922011,127.054344513616,3.1,712.0
석우동,분식,우동전문점,분식 및 김밥 전문점,대치동,서울특별시 강남구 삼성로85길 11,37.5045881509052,127.056164781276,0.0,368.0
닭스,닭/오리요리,후라이드/양념치킨,치킨 전문점,대치동,서울특별시 강남구 테헤란로64길 9,37.5044880347843,127.051540139422,0.0,652.0
죠스떡볶이,분식,라면김밥분식,분식 및 김밥 전문점,대치동,서울특별시 강남구 도곡로 510,37.4990133147849,127.06216110792,2.6,1035.0
책갈피,패스트푸드,패스트푸드,그외 기타 음식점업,대치동,서울특별시 강남구 삼성로81길 6,37.504766469623,127.057056051551,0.0,326.0
신촌,분식,라면김밥분식,분식 및 김밥 전문점,삼성동,서울특별시 강남구 봉은사로82길 25,37.5116101622976,127.055386371622,0.0,488.0
남원추어탕,한식,한식/백반/한정식,한식 음식점업,대치동,서울특별시 강남구 도곡로 440,37.497876881986095,127.058624205858,0.0,1089.0
쌀통닭,닭/오리요리,후라이드/양념치킨,치킨 전문점,대치동,서울특별시 강남구 도곡로99길 16,37.5018369581587,127.065993770919,4.0,972.0
신차이,중식,중국음식/중국집,중식 음식점업,삼성동,서울특별시 강남구 테헤란로 517,37.5086083814458,127.05974496335,5.0,205.0
구구족,한식,한식/백반/한정식,한식 음식점업,대치동,서울특별시 강남구 도곡로 510,37.4990133147849,127.06216110792,4.5,1035.0
닐리파스타,양식,정통양식/경양식,서양식 음식점업,대치동,서울특별시 강남구 도곡로63길 23,37.4984147421243,127.053765738322,3.6,1085.0
도미노피자,패스트푸드,피자전문,"피자, 햄버거, 샌드위치 및 유사 음식점업",삼성동,서울특별시 강남구 봉은사로 451,37.5120363948748,127.048990051903,1.5,915.0
명품다올,한식,한식/백반/한정식,한식 음식점업,삼성동,서울특별시 강남구 선릉로112길 84,37.5128576356724,127.050269146346,0.0,879.0
국고집,한식,기타고기요리,한식 음식점업,대치동,서울특별시 강남구 선릉로86길 30,37.5036282828868,127.052195693976,3.0,664.0
제주생선구이올래밥상삼성,일식/수산물,갈치/생선구이,한식 음식점업,삼성동,서울특별시 강남구 봉은사로 466,37.5119597642227,127.050665111224,5.0,789.0
파리스치킨,닭/오리요리,후라이드/양념치킨,치킨 전문점,삼성동,서울특별시 강남구 삼성로103길 23,37.5098680357675,127.052750221078,0.0,506.0
종로김밥,분식,라면김밥분식,분식 및 김밥 전문점,삼성동,서울특별시 강남구 테헤란로107길 11,37.5104254799265,127.065038423419,2.3,712.0
오복냉면,한식,냉면집,한식 음식점업,대치동,서울특별시 강남구 선릉로76길 21,37.50184391891631,127.05216170111,0.0,813.0
나주본가설렁탕,한식,설렁탕집,한식 음식점업,삼성동,서울특별시 강남구 삼성로103길 6,37.5105089528091,127.054020285185,1.0,458.0
보영만두,분식,국수/만두/칼국수,분식 및 김밥 전문점,대치동,서울특별시 강남구 삼성로85길 42,37.5046227559395,127.053732632053,4.0,489.0
강정희간장새우,일식/수산물,음식점-일식,일식 음식점업,대치동,서울특별시 강남구 역삼로63길 22,37.5025733374752,127.052107240138,4.5,753.0
담뿍화로된장,한식,한식/백반/한정식,한식 음식점업,대치동,서울특별시 강남구 테헤란로78길 14-15,37.504862259539294,127.054385608291,4.0,430.0
판동면옥,한식,냉면집,한식 음식점업,대치동,서울특별시 강남구 역삼로77길 5,37.5028412713531,127.056311182533,4.0,549.0
메밀연가,분식,우동전문점,분식 및 김밥 전문점,대치동,서울특별시 강남구 선릉로62길 37,37.4982112711086,127.055362921044,2.9,1070.0
행복한밥상,한식,한식/백반/한정식,한식 음식점업,대치동,서울특별시 강남구 선릉로64길 12,37.4977889985827,127.053264717246,3.0,1166.0
한와담,한식,한식/백반/한정식,한식 음식점업,대치동,서울특별시 강남구 테헤란로 440,37.505804183147696,127.056115540456,2.5,251.0
스시로,일식/수산물,음식점-초밥전문,일식 음식점업,삼성동,서울특별시 강남구 테헤란로87길 58,37.5120056433882,127.057519244112,3.7,485.0
쿠모식당,한식,한식/백반/한정식,한식 음식점업,삼성동,서울특별시 강남구 영동대로 513,37.5118203253706,127.059139102428,0.0,480.0
서울스낵,분식,라면김밥분식,분식 및 김밥 전문점,삼성동,서울특별시 강남구 영동대로 513,37.5118203253706,127.059139102428,0.0,480.0
자매분식,분식,라면김밥분식,분식 및 김밥 전문점,삼성동,서울특별시 강남구 삼성로103길 12,37.510386662713,127.053377092173,5.0,492.0
이베리코,한식,한식/백반/한정식,한식 음식점업,삼성동,서울특별시 강남구 영동대로106길 11,37.513573477254496,127.062046812118,3.4,760.0
스시노스시,일식/수산물,음식점-초밥전문,일식 음식점업,대치동,서울특별시 강남구 역삼로 413,37.5011863052268,127.052181323904,4.2,871.0
코벤트가든,양식,정통양식/경양식,서양식 음식점업,대치동,서울특별시 강남구 선릉로 410,37.5015614607229,127.05064975443,3.2,923.0
고운님,한식,한식/백반/한정식,한식 음식점업,삼성동,서울특별시 강남구 영동대로 513,37.5118203253706,127.059139102428,3.9,480.0
노포식당,한식,곱창/양구이전문,한식 음식점업,대치동,서울특별시 강남구 선릉로86길 24,37.50346193408409,127.051677531484,3.8,710.0
차이나팩토리익스프레스,중식,중국음식/중국집,중식 음식점업,삼성동,서울특별시 강남구 영동대로 513,37.5118203253706,127.059139102428,2.5,480.0
불이아,중식,중국음식/중국집,중식 음식점업,삼성동,서울특별시 강남구 테헤란로87길 55,37.5111744090288,127.057235602853,4.5,395.0
명동피자,패스트푸드,피자전문,"피자, 햄버거, 샌드위치 및 유사 음식점업",대치동,서울특별시 강남구 역삼로63길 6,37.501577076726896,127.052594848035,3.1,814.0
거자필반,일식/수산물,해물찜/탕전문,한식 음식점업,대치동,서울특별시 강남구 테헤란로108길 8,37.5088265910197,127.065669157082,4.0,710.0
마왕족발,한식,족발/보쌈전문,한식 음식점업,대치동,서울특별시 강남구 도곡로 516,37.499172940488,127.062973394068,3.3,1048.0
가츠오,양식,돈가스전문점,서양식 음식점업,대치동,서울특별시 강남구 도곡로63길 31,37.4989888235552,127.053441829766,4.7,1035.0
이태리부대찌개,한식,부대찌개/섞어찌개,한식 음식점업,대치동,서울특별시 강남구 영동대로86길 28,37.50824704291809,127.066445518618,4.2,769.0
서울밥상,분식,라면김밥분식,분식 및 김밥 전문점,삼성동,서울특별시 강남구 봉은사로 608-10,37.5136591714657,127.061491468063,3.0,745.0
남포동수제비,분식,라면김밥분식,분식 및 김밥 전문점,삼성동,서울특별시 강남구 영동대로 513,37.5118203253706,127.059139102428,2.0,480.0
싸다김밥,분식,라면김밥분식,분식 및 김밥 전문점,대치동,서울특별시 강남구 도곡로 440,37.497876881986095,127.058624205858,1.5,1089.0
은마떡집,한식,한식/백반/한정식,한식 음식점업,대치동,서울특별시 강남구 삼성로 212,37.4996105819766,127.065897098053,0.0,1146.0
마미치킨,닭/오리요리,후라이드/양념치킨,치킨 전문점,대치동,서울특별시 강남구 삼성로 212,37.4996105819766,127.065897098053,3.7,1146.0
왕대박숯불구이,한식,갈비/삼겹살,한식 음식점업,대치동,서울특별시 강남구 영동대로85길 20-7,37.5073706982219,127.061604134108,0.0,340.0
즉석떡볶이88,분식,떡볶이전문,분식 및 김밥 전문점,삼성동,서울특별시 강남구 봉은사로 466,37.5119597642227,127.050665111224,4.6,789.0
그린파이브,양식,기타전문서양음식점,서양식 음식점업,삼성동,서울특별시 강남구 테헤란로 517,37.5086083814458,127.05974496335,0.0,205.0
만다린,중식,중국음식/중국집,중식 음식점업,대치동,서울특별시 강남구 삼성로81길 34,37.5039830245632,127.054860416091,4.5,481.0
써니쿡,분식,라면김밥분식,분식 및 김밥 전문점,대치동,서울특별시 강남구 역삼로78길 15,37.5015605650684,127.057288637623,0.0,678.0
원조감자탕일미집,한식,해장국/감자탕,한식 음식점업,대치동,서울특별시 강남구 선릉로86길 48,37.5041082093327,127.053614714042,3.0,537.0
멍텅구리꼼장어,일식/수산물,곰장어전문,한식 음식점업,삼성동,서울특별시 강남구 봉은사로 445,37.5118514655959,127.048404206517,3.8,949.0
찜닭에꽂힌닭집애,한식,한식/백반/한정식,한식 음식점업,대치동,서울특별시 강남구 선릉로 334,37.499577867777695,127.051613559422,0.0,1048.0
빨강떡볶이,분식,떡볶이전문,분식 및 김밥 전문점,삼성동,서울특별시 강남구 봉은사로67길 30,37.5136957039447,127.048041440985,2.7,1090.0
고피자,한식,한식/백반/한정식,NaN,삼성동,서울특별시 강남구 봉은사로63길 14,37.5122821772943,127.047063987514,5.0,1075.0
버거킹,패스트푸드,패스트푸드,그외 기타 음식점업,삼성동,서울특별시 강남구 봉은사로 502,37.5128772194951,127.053832032991,4.0,677.0
초원족발,한식,족발/보쌈전문,한식 음식점업,삼성동,서울특별시 강남구 테헤란로81길 22,37.508495653930495,127.056907345684,2.0,121.0
소곱창과순대국,한식,한식/백반/한정식,한식 음식점업,삼성동,서울특별시 강남구 삼성로 517,37.5080786526444,127.055464807235,5.0,208.0
단골집,한식,해장국/감자탕,한식 음식점업,삼성동,서울특별시 강남구 선릉로112길 36,37.51179155057,127.046561213687,5.0,1090.0
베를린,한식,한식/백반/한정식,한식 음식점업,대치동,서울특별시 강남구 삼성로85길 33,37.5042799811461,127.054811431542,0.0,456.0
바토스,양식,기타전문서양음식점,서양식 음식점업,삼성동,서울특별시 강남구 테헤란로 521,37.50918435794689,127.060789660534,4.2,317.0
농민백암,한식,한식/백반/한정식,한식 음식점업,대치동,서울특별시 강남구 선릉로86길 40-3,37.50378924656,127.05316633355,4.3,590.0
날마다막창,한식,곱창/양구이전문,한식 음식점업,대치동,서울특별시 강남구 역삼로63길 17,37.5022569107682,127.051975521283,1.0,787.0
면전,한식,한식/백반/한정식,한식 음식점업,대치동,서울특별시 강남구 삼성로85길 33,37.5042799811461,127.054811431542,0.0,456.0
엄마의부엌,한식,한식/백반/한정식,한식 음식점업,삼성동,서울특별시 강남구 삼성로 571,37.5123404849208,127.053194055546,0.0,659.0
유채라멘,분식,라면김밥분식,분식 및 김밥 전문점,대치동,서울특별시 강남구 삼성로63길 25,37.499386450293,127.058096327075,4.6,919.0
팔공뭉티기,한식,한식/백반/한정식,한식 음식점업,삼성동,서울특별시 강남구 삼성로103길 12,37.510386662713,127.053377092173,0.0,492.0
UFO버거,패스트푸드,패스트푸드,그외 기타 음식점업,대치동,서울특별시 강남구 도곡로 510,37.4990133147849,127.06216110792,2.5,1035.0
700곳간,일식/수산물,음식점-일식,일식 음식점업,대치동,서울특별시 강남구 삼성로85길 19,37.5047106707144,127.055710826447,5.0,373.0
쉐이크쉑,한식,한식/백반/한정식,NaN,삼성동,서울특별시 강남구 영동대로 513,37.5118203253706,127.059139102428,4.0,480.0
배떡,분식,라면김밥분식,NaN,대치동,서울특별시 강남구 삼성로 212,37.4996105819766,127.065897098053,0.0,1146.0
배떡,분식,라면김밥분식,NaN,삼성동,서울특별시 강남구 삼성로95길 15,37.5077374237006,127.054485070126,0.0,289.0
백제한방삼계탕,한식,한식/백반/한정식,NaN,대치동,서울특별시 강남구 삼성로81길 43,37.5035636927822,127.05425495497,5.0,549.0
맛자랑,한식,한식/백반/한정식,NaN,삼성동,서울특별시 강남구 선릉로 524,37.5066430806136,127.048368528927,5.0,836.0
보드람죽,한식,한식/백반/한정식,NaN,대치동,서울특별시 강남구 선릉로64길 28,37.4982317866289,127.054548390745,0.0,1085.0
우아한강남키친,한식,한식/백반/한정식,NaN,대치동,서울특별시 강남구 삼성로81길 43,37.5035636927822,127.05425495497,0.0,549.0
명품유쾌,한식,한식/백반/한정식,NaN,대치동,서울특별시 강남구 선릉로 334,37.499577867777695,127.051613559422,5.0,1048.0
오늘통닭,닭/오리요리,후라이드/양념치킨,치킨 전문점,삼성동,서울특별시 강남구 테헤란로63길 12,37.5061304399553,127.050727624277,5.0,643.0
스시한판,일식/수산물,음식점-초밥전문,NaN,대치동,서울특별시 강남구 삼성로85길 11,37.5045881509052,127.056164781276,1.8,368.0
오레노카츠,일식/수산물,음식점-일식,일식 음식점업,대치동,서울특별시 강남구 도곡로63길 28,37.498830726116495,127.053952749357,5.0,1036.0
미나다,일식/수산물,음식점-일식,NaN,삼성동,서울특별시 강남구 선릉로 514,37.5055951465088,127.049150940996,1.0,793.0
송파만두,한식,한식/백반/한정식,NaN,대치동,서울특별시 강남구 삼성로81길 43,37.5035636927822,127.05425495497,4.2,549.0
오한수우육면가,한식,한식/백반/한정식,NaN,삼성동,서울특별시 강남구 선릉로 514,37.5055951465088,127.049150940996,0.0,793.0
칠리향마라탕,일식/수산물,음식점-일식,NaN,대치동,서울특별시 강남구 선릉로86길 30,37.5036282828868,127.052195693976,4.7,664.0
블랙바스테이크하우스,한식,한식/백반/한정식,NaN,대치동,서울특별시 강남구 테헤란로 610,37.5088175499617,127.064526865103,0.0,611.0
맘마,한식,한식/백반/한정식,NaN,대치동,서울특별시 강남구 삼성로 212,37.4996105819766,127.065897098053,0.0,1146.0
국대떡볶이,분식,라면김밥분식,분식 및 김밥 전문점,대치동,서울특별시 강남구 삼성로 231,37.4978144250794,127.06096600933,2.7,1129.0
오로라김밥,분식,라면김밥분식,NaN,대치동,서울특별시 강남구 도곡로77길 6,37.4987607308839,127.058726204464,5.0,992.0
신식신,중식,중국음식/중국집,NaN,대치동,서울특별시 강남구 삼성로85길 32,37.5047020772824,127.054636455439,3.0,428.0
지니김밥,분식,라면김밥분식,분식 및 김밥 전문점,대치동,서울특별시 강남구 도곡로73길 13,37.4987375613959,127.056950917897,0.0,993.0
다도,일식/수산물,음식점-일식,일식 음식점업,삼성동,서울특별시 강남구 테헤란로77길 11-8,37.5071643823693,127.053813657136,5.0,352.0
케이더블유,한식,한식/백반/한정식,NaN,삼성동,서울특별시 강남구 삼성로95길 14,37.5080624046391,127.054560146777,0.0,286.0
디오비랩,양식,정통양식/경양식,NaN,삼성동,서울특별시 강남구 선릉로108길 5,37.50956810980129,127.04459875384,0.0,1181.0
하랑,일식/수산물,음식점-일식,일식 음식점업,삼성동,서울특별시 강남구 선릉로112길 38,37.5118557133838,127.046696134053,5.0,1082.0
부산아지매국밥,한식,한식/백반/한정식,NaN,대치동,서울특별시 강남구 삼성로81길 36,37.5039178755402,127.054601103032,3.6,500.0
꼬육꼬밥,한식,한식/백반/한정식,한식 음식점업,대치동,서울특별시 강남구 도곡로 516,37.499172940488,127.062973394068,0.0,1048.0
모던바,한식,한식/백반/한정식,한식 음식점업,대치동,서울특별시 강남구 역삼로63길 24,37.5027796518486,127.051991531653,0.0,743.0
옐로트렁크,양식,정통양식/경양식,NaN,대치동,서울특별시 강남구 테헤란로86길 10,37.5066829296312,127.058966060412,0.0,151.0
대치은마점,한식,한식/백반/한정식,한식 음식점업,대치동,서울특별시 강남구 삼성로58길 9,37.4987234786902,127.061972472796,0.0,1059.0
장수식당,한식,한식/백반/한정식,한식 음식점업,대치동,서울특별시 강남구 역삼로 455,37.5027383033078,127.056957149265,0.0,550.0
뒤끝,한식,한식/백반/한정식,한식 음식점업,대치동,서울특별시 강남구 테헤란로104길 8,37.5085853583327,127.064789913491,5.0,629.0
식껍,한식,기타고기요리,NaN,삼성동,서울특별시 강남구 테헤란로107길 11,37.5104254799265,127.065038423419,0.0,712.0
뿔한우,양식,정통양식/경양식,서양식 음식점업,삼성동,서울특별시 강남구 봉은사로 420,37.5105271905108,127.046204027793,1.8,1069.0
밀본,한식,한식/백반/한정식,한식 음식점업,대치동,서울특별시 강남구 테헤란로84길 25,37.5055401441444,127.059161372201,0.0,265.0
투도우,한식,한식/백반/한정식,한식 음식점업,삼성동,서울특별시 강남구 봉은사로 449,37.5119806977954,127.04878715339,0.0,927.0
열도미행파르나스몰점,일식/수산물,음식점-일식,NaN,삼성동,서울특별시 강남구 테헤란로 521,37.50918435794689,127.060789660534,1.0,317.0
수미돈,한식,한식/백반/한정식,NaN,삼성동,서울특별시 강남구 삼성로103길 12,37.510386662713,127.053377092173,0.0,492.0
긴자료코,한식,한식/백반/한정식,NaN,대치동,서울특별시 강남구 삼성로 327,37.50088412827309,127.059468611259,5.0,767.0
맛자랑,한식,한식/백반/한정식,한식 음식점업,대치동,서울특별시 강남구 선릉로 326,37.4987612570104,127.052031026147,4.8,1110.0
트윈쿡,분식,스낵,분식 및 김밥 전문점,삼성동,서울특별시 강남구 영동대로 513,37.5118203253706,127.059139102428,1.2,480.0
마부육전,한식,한식/백반/한정식,한식 음식점업,대치동,서울특별시 강남구 테헤란로86길 17,37.5062911881768,127.059559126487,3.0,219.0
브레덴버거,패스트푸드,패스트푸드,그외 기타 음식점업,대치동,서울특별시 강남구 도곡로63길 36,37.49928795425289,127.053664243599,5.0,997.0
피자스쿨,패스트푸드,피자전문,"피자, 햄버거, 샌드위치 및 유사 음식점업",대치동,서울특별시 강남구 도곡로84길 6,37.49889968940509,127.062603597099,5.0,1062.0
왕제,중식,중국음식/중국집,중식 음식점업,대치동,서울특별시 강남구 영동대로57길 28,37.4999304583202,127.065327633433,3.2,1087.0
7스테이크,양식,스테이크전문점,서양식 음식점업,삼성동,서울특별시 강남구 영동대로 513,37.5118203253706,127.059139102428,3.2,480.0
불곱창&곱창컵밥,한식,곱창/양구이전문,한식 음식점업,삼성동,서울특별시 강남구 영동대로 513,37.5118203253706,127.059139102428,3.7,480.0
바른식탁삼성점,한식,한식/백반/한정식,한식 음식점업,삼성동,서울특별시 강남구 테헤란로83길 15,37.50845553168389,127.05733024372886,4.3,92.0
제주생선구이올래밥상,일식/수산물,갈치/생선구이,한식 음식점업,삼성동,서울특별시 강남구 삼성로100길 16,37.50966217158136,127.05658371608092,5.0,247.0
기소야 삼성점,일식/수산물,음식점-일식,일식 음식점업,삼성동,서울 강남구 삼성로92길 13,37.50798957710769,127.05759498181574,2.0,41.0
호신각,중식,중국음식/중국집,중식 음식점업,삼성동,서울특별시 강남구 테헤란로81길 16,37.508191041244,127.057126083908,3.0,82.0
고반식당,한식,기타고기요리,한식 음식점업,삼성동,서울특별시 강남구 테헤란로81길 16,37.50818974104394,127.05718960168755,3.0,82.0
깡장보리밥,한식,보리밥전문,한식 음식점업,삼성동,서울 강남구 테헤란로83길 14,37.50840220686913,127.05764663378883,4.5,83.0
토종시골집,한식,한식/백반/한정식,한식 음식점업,삼성동,서울 강남구 테헤란로83길 14,37.50838518526742,127.05775928655969,4.5,83.0
명동칼국수,분식,국수/만두/칼국수,분식 및 김밥 전문점,삼성동,서울 강남구 테헤란로83길 14,37.50841922846694,127.05772173563606,2.6,83.0
샤블랑157,별식/퓨전요리,샤브샤브전문,한식 음식점업,삼성동,서울 강남구 테헤란로83길 11,37.50813411618526,127.0574964300944,4.5,64.0
황금복국,일식/수산물,복전문,한식 음식점업,삼성동,서울 강남구 삼성로96길 26-6,37.508704339659545,127.05801141421674,3.3,122.0
캐슬,양식,정통양식/경양식,서양식 음식점업,삼성동,서울 강남구 삼성로96길 14,37.50877013366981,127.05707704628972,0.0,137.0
돈꼬레,한식,기타고기요리,한식 음식점업,삼성동,서울 강남구 삼성로96길 13,37.50896735567529,127.05696004750938,3.4,160.0
오징어세상,수산물/일식,횟집,한식 음식점업,삼성동,서울 강남구 삼성로96길 15,37.50903336550769,127.05710938673629,3.8,169.0
고메램,한식,기타고기요리,한식 음식점업,삼성동,서울 강남구 삼성로96길 15,37.50910357897995,127.05707720022993,3.4,169.0
스시욘즈,일식,음식점-초밥전문,일식 음식점업,삼성동,서울 강남구 삼성로96길 11,37.50891847059238,127.05681702597056,4.3,168.0
화양연화,중식,중국음식/중국집,중식 음식점업,삼성동,서울특별시 강남구 삼성로96길 11,37.5089452334192,127.056788579908,4.0,168.0
교대이층집,한식,기타고기요리,한식 음식점업,삼성동,서울 강남구 삼성로96길 9,37.508875916875176,127.05667486890096,3.4,169.0
장호왕,한식,곱창/양구이전문,한식 음식점업,삼성동,서울 강남구 테헤란로81길 30,37.50907591913513,127.05683043701484,3.0,181.0
이향,한식,돌솥/비빕밥전문점,한식 음식점업,삼성동,서울 강남구 테헤란로81길 30,37.5090610253683,127.05674192412243,3.3,181.0
인성참치,일식/수산물,참치전문점,한식 음식점업,삼성동,서울 강남구 테헤란로81길 34,37.50911208970071,127.05656489833618,2.7,197.0
진주,일식/수산물,수산물전문음식점-종합,한식 음식점업,삼성동,서울 강남구 테헤란로83길 31,37.5093567724742,127.05692163211113,5.0,207.0
도리도리닭한마리,닭/오리요리,닭도리탕전문,한식 음식점업,삼성동,서울특별시 강남구 테헤란로83길 31,37.5093877899402,127.056918743393,0.0,207.0
보름쇠,한식,기타고기요리,한식 음식점업,삼성동,서울 강남구 테헤란로81길 36,37.50928655924008,127.05663463576307,3.3,203.0
삼육가,한식,기타고기요리,한식 음식점업,삼성동,서울 강남구 테헤란로81길 38,37.50938868756079,127.05645492776704,3.5,224.0
비블레스,양식,정통양식/경양식,서양식 음식점업,삼성동,서울특별시 강남구 테헤란로83길 33,37.509485631782894,127.056759157969,4.1,223.0
에머이,별식/퓨전요리,동남아음식전문점,기타 외국식 음식점업,삼성동,서울 강남구 삼성로96길 6,37.50855638127914,127.0565875579208,2.5,142.0
샐러디,양식,정통양식/경양식,서양식 음식점업,삼성동,서울 강남구 삼성로96길 6,37.508501688580026,127.0566269559276,4.3,142.0
깐부치킨,닭/오리요리,후라이드/양넘치킨,치킨 전문점,삼성동,서울 강남구 삼성로96길 3,37.5087059234235,127.056158179969,2.6,184.0
문배동육칼,한식,한식/백반/한정식,한식 음식점업,삼성동,서울특별시 강남구 삼성로96길 3,37.508773164548735,127.0559856561508,4.1,194.0
큐큐면관,중식,중국음식/중국집,중식 음식점업,삼성동,서울 강남구 삼성로96길 7,37.50875753811273,127.05632710554336,3.3,177.0
마초갈비,한식,갈비/삼겹살,한식 음식점업,삼성동,서울특별시 강남구 삼성로96길 7,37.5088069271227,127.0563944377,3.6,177.0
동어동락,일식/수산물,횟집,한식 음식점업,삼성동,서울특별시 강남구 삼성로96길 7,37.50879399979164,127.05644529956388,4.0,177.0
오징어청춘,일식/수산물,횟집,한식 음식점업,삼성동,서울특별시 강남구 삼성로96길 7,37.50882785704893,127.05649126390516,2.5,177.0
박서방순대국밥,별식/퓨전요리,순대전문점,한식 음식점업,삼성동,서울특별시 강남구 삼성로 520,37.5086858253054,127.055898282104,3.6,201.0
써브웨이 삼성점,패스트푸드,패스트푸드,그외 기타 음식점업,삼성동,서울특별시 강남구 삼성로 520,37.50858304268859,127.05593312547504,1.9,201.0
전통백암순대국,별식/퓨전요리,순대전문점,한식 음식점업,삼성동,서울특별시 강남구 테헤란로81길 37,37.5093368699348,127.056184168485,1.0,234.0
삼대나주곰탕,한식,설렁탕집,한식 음식점업,삼성동,서울특별시 강남구 삼성로100길 8,37.5094799397807,127.056046634707,2.8,254.0
담미온,한식,족발/보쌈전문,한식 음식점업,삼성동,서울특별시 강남구 삼성로100길 8,37.509452911355176,127.05607101849196,5.0,254.0
빕스얌딜리버리,양식,정통양식/경양식,서양식 음식점업,삼성동,서울특별시 강남구 테헤란로83길 11,37.50820800635825,127.05749919632564,2.0,63.0
할랄가이즈,양식,정통양식/경양식,서양식 음식점업,삼성동,서울특별시 강남구 테헤란로83길 11,37.5081484300726,127.057432012276,0.0,63.0
마라지존,중식,중국음식/중국집,중식 음식점업,삼성동,서울특별시 강남구 테헤란로83길 11,37.5081350824102,127.05757142600486,5.0,63.0
월스트리트,양식,정통양식/경양식,서양식 음식점업,삼성동,서울특별시 강남구 테헤란로83길 13,37.5082737529363,127.057328638827,3.0,79.0
더뭉티기,한식,한식/백반/한정식,한식 음식점업,삼성동,서울특별시 강남구 테헤란로83길 14,37.5084668357663,127.057812578477,3.0,91.0
이향숯불갈비,한식,갈비/삼겹살,한식 음식점업,삼성동,서울특별시 강남구 테헤란로83길 14,37.5084319866136,127.05790959225978,3.3,91.0
김밥천국,분식,라면김밥분식,분식 및 김밥 전문점,삼성동,서울특별시 강남구 테헤란로83길 14,37.50847105286781,127.05800480410964,2.0,91.0
소공동뚝배기집,한식,한식/백반/한정식,한식 음식점업,삼성동,서울특별시 강남구 테헤란로87길 21,37.5090468809262,127.058235104471,1.0,161.0
뻘밭에핀꽃,일식/수산물,수산물전문음식점-종합,한식 음식점업,삼성동,서울특별시 강남구 테헤란로87길 21,37.50909871455871,127.05834297036948,4.5,161.0
마노디셰프,양식,정통양식/경양식,서양식 음식점업,삼성동,서울특별시 강남구 테헤란로87길 21,37.50899974750713,127.05814926350254,3.8,161.0
목포명가,일식/수산물,수산물전문음식점-종합,한식 음식점업,삼성동,서울특별 강남구 삼성로100길 24,37.50984579009152, 127.05727655503867,2.2,248.0
스시유리,일식/수산물,음식점-일식,일식 음식점업,삼성동,서울특별시 강남구 테헤란로83길 36,37.5097844854222,127.056947685597,3.7,248.0
푸에르코 삼성점,한식,기타고기요리,한식 음식점업,서울 강남구 테헤란로87길 35,37.509944756026286,127.05774604797274,5.0,256.0
차이797,중식,중국음식/중국집,한식 음식점업,삼성동,서울특별시 강남구 테헤란로87길 35,37.5099527066604,127.057703413008,2.9,256.0
투뿔등심고담,한식,기타고기요리,한식 음식점업,삼성동,서울 강남구 테헤란로87길 33,37.509811933300874, 127.05800541819262,2.8,242.0
해품초,일식/수산물,수산물전문음식점-종합점,한식 음식점업,서울 강남구 테헤란로87길 29,37.50964264909253,127.0579791528539,3.6,228.0
시추안하우스,중식,중국음식/중국집,한식 음식점업,삼성동,서울 강남구 테헤란로87길 29,37.50955410027676,127.05802840036404,3.2,228.0
브라운치킨,닭/오리요리,후라이드/양넘치킨,치킨 전문점,삼성동,서울 강남구 삼성로96길 27,37.50931449706428,127.05795945385628,3.0,188.0
능라도,한식,냉면집,한식 음식점업,삼성동,서울 강남구 삼성로 534,37.509635629640584,127.05554648309507,3.7,290.0
서백자간장게장,일식/수산물,게장전문,삼성동,서울 강남구 삼성로 542,37.51021582431226,127.05534554446562,4.3,361.0
곰바위,한식,곱창/양구이전문,한식 음식점업,삼성동,서울특별시 강남구 삼성로 542,37.5102124916379,127.055256940819,3.1,361.0
배꼽양대창,한식,곱창/양구이전문,한식 음식점업,삼성동,서울특별시 강남구 테헤란로81길 51,37.5104228789306,127.0556501801,5.0,361.0
진대감,한식,한식/백반/한정식,한식 음식점업,삼성동,서울특별시 강남구 테헤란로81길 47,37.510207009126496,127.055698144338,4.6,338.0
강남한우정육식당,한식,기타고기요리,한식 음식점업,삼성동,서울 강남구 삼성로 546,37.51031464823354,127.0551124556517,3.0,382.0
하남돼지집 삼성코엑스직영점,한식,기타고기요리,한식 음식점업,삼성동,서울 강남구 테헤란로81길 53,37.51054098639067, 127.0556148022253,3.7,374.0
